<?xml version="1.0"?>
<gpx xmlns="http://www.topografix.com/GPX/1/1" version="1.1" creator="afstandmeten.nl" xmlns:xsi="http://www.w3.org/2001/XMLSchema-instance" xsi:schemaLocation="http://www.topografix.com/GPX/1/1 http://www.topografix.com/GPX/1/1/gpx.xsd">
  <trk>
    <name>GTL_2026_Optie08</name>
    <desc/>
    <trkseg>
      <trkpt lat="52.0113507" lon="4.3614874">
        <ele>0.00000</ele>
        <time>2026-01-15T00:00:00Z</time>
      </trkpt>
      <trkpt lat="52.0115418" lon="4.3618299">
        <ele>0.00000</ele>
        <time>2026-01-15T00:00:12Z</time>
      </trkpt>
      <trkpt lat="52.0118399" lon="4.361848">
        <ele>0.00000</ele>
        <time>2026-01-15T00:00:24Z</time>
      </trkpt>
      <trkpt lat="52.0121423" lon="4.3615417">
        <ele>0.00000</ele>
        <time>2026-01-15T00:00:38Z</time>
      </trkpt>
      <trkpt lat="52.012165" lon="4.361567">
        <ele>0.00000</ele>
        <time>2026-01-15T00:00:39Z</time>
      </trkpt>
      <trkpt lat="52.01242" lon="4.362181">
        <ele>0.00000</ele>
        <time>2026-01-15T00:00:57Z</time>
      </trkpt>
      <trkpt lat="52.013362" lon="4.36411">
        <ele>0.00000</ele>
        <time>2026-01-15T00:01:58Z</time>
      </trkpt>
      <trkpt lat="52.013471" lon="4.364217">
        <ele>0.00000</ele>
        <time>2026-01-15T00:02:03Z</time>
      </trkpt>
      <trkpt lat="52.013878" lon="4.365124">
        <ele>0.00000</ele>
        <time>2026-01-15T00:02:31Z</time>
      </trkpt>
      <trkpt lat="52.013878" lon="4.365124">
        <ele>0.00000</ele>
        <time>2026-01-15T00:02:31Z</time>
      </trkpt>
      <trkpt lat="52.013889" lon="4.365214">
        <ele>0.00000</ele>
        <time>2026-01-15T00:02:33Z</time>
      </trkpt>
      <trkpt lat="52.014045" lon="4.365476">
        <ele>0.00000</ele>
        <time>2026-01-15T00:02:42Z</time>
      </trkpt>
      <trkpt lat="52.014045" lon="4.365675">
        <ele>0.00000</ele>
        <time>2026-01-15T00:02:47Z</time>
      </trkpt>
      <trkpt lat="52.014262" lon="4.366168">
        <ele>0.00000</ele>
        <time>2026-01-15T00:03:02Z</time>
      </trkpt>
      <trkpt lat="52.014345" lon="4.366275">
        <ele>0.00000</ele>
        <time>2026-01-15T00:03:06Z</time>
      </trkpt>
      <trkpt lat="52.014498" lon="4.366669">
        <ele>0.00000</ele>
        <time>2026-01-15T00:03:18Z</time>
      </trkpt>
      <trkpt lat="52.014581" lon="4.367131">
        <ele>0.00000</ele>
        <time>2026-01-15T00:03:30Z</time>
      </trkpt>
      <trkpt lat="52.0146494" lon="4.3673998">
        <ele>0.00000</ele>
        <time>2026-01-15T00:03:37Z</time>
      </trkpt>
      <trkpt lat="52.014699" lon="4.367561">
        <ele>0.00000</ele>
        <time>2026-01-15T00:03:41Z</time>
      </trkpt>
      <trkpt lat="52.0147815" lon="4.3678254">
        <ele>0.00000</ele>
        <time>2026-01-15T00:03:48Z</time>
      </trkpt>
      <trkpt lat="52.014847" lon="4.368045">
        <ele>0.00000</ele>
        <time>2026-01-15T00:03:54Z</time>
      </trkpt>
      <trkpt lat="52.015227" lon="4.369308">
        <ele>0.00000</ele>
        <time>2026-01-15T00:04:29Z</time>
      </trkpt>
      <trkpt lat="52.015227" lon="4.369308">
        <ele>0.00000</ele>
        <time>2026-01-15T00:04:29Z</time>
      </trkpt>
      <trkpt lat="52.015212" lon="4.369409">
        <ele>0.00000</ele>
        <time>2026-01-15T00:04:32Z</time>
      </trkpt>
      <trkpt lat="52.01459" lon="4.370661">
        <ele>0.00000</ele>
        <time>2026-01-15T00:05:11Z</time>
      </trkpt>
      <trkpt lat="52.015179" lon="4.371984">
        <ele>0.00000</ele>
        <time>2026-01-15T00:05:52Z</time>
      </trkpt>
      <trkpt lat="52.015414" lon="4.372898">
        <ele>0.00000</ele>
        <time>2026-01-15T00:06:16Z</time>
      </trkpt>
      <trkpt lat="52.015653" lon="4.373412">
        <ele>0.00000</ele>
        <time>2026-01-15T00:06:32Z</time>
      </trkpt>
      <trkpt lat="52.015849" lon="4.37345">
        <ele>0.00000</ele>
        <time>2026-01-15T00:06:40Z</time>
      </trkpt>
      <trkpt lat="52.015996" lon="4.373378">
        <ele>0.00000</ele>
        <time>2026-01-15T00:06:46Z</time>
      </trkpt>
      <trkpt lat="52.016194" lon="4.373205">
        <ele>0.00000</ele>
        <time>2026-01-15T00:06:55Z</time>
      </trkpt>
      <trkpt lat="52.0165" lon="4.372872">
        <ele>0.00000</ele>
        <time>2026-01-15T00:07:10Z</time>
      </trkpt>
      <trkpt lat="52.017044" lon="4.372151">
        <ele>0.00000</ele>
        <time>2026-01-15T00:07:38Z</time>
      </trkpt>
      <trkpt lat="52.017132" lon="4.371919">
        <ele>0.00000</ele>
        <time>2026-01-15T00:07:44Z</time>
      </trkpt>
      <trkpt lat="52.017246" lon="4.37176">
        <ele>0.00000</ele>
        <time>2026-01-15T00:07:50Z</time>
      </trkpt>
      <trkpt lat="52.017246" lon="4.37176">
        <ele>0.00000</ele>
        <time>2026-01-15T00:07:50Z</time>
      </trkpt>
      <trkpt lat="52.019081" lon="4.369607">
        <ele>0.00000</ele>
        <time>2026-01-15T00:09:21Z</time>
      </trkpt>
      <trkpt lat="52.019225" lon="4.369535">
        <ele>0.00000</ele>
        <time>2026-01-15T00:09:27Z</time>
      </trkpt>
      <trkpt lat="52.019698" lon="4.369972">
        <ele>0.00000</ele>
        <time>2026-01-15T00:09:49Z</time>
      </trkpt>
      <trkpt lat="52.019748" lon="4.370047">
        <ele>0.00000</ele>
        <time>2026-01-15T00:09:52Z</time>
      </trkpt>
      <trkpt lat="52.019785" lon="4.370237">
        <ele>0.00000</ele>
        <time>2026-01-15T00:09:56Z</time>
      </trkpt>
      <trkpt lat="52.019357" lon="4.373365">
        <ele>0.00000</ele>
        <time>2026-01-15T00:11:15Z</time>
      </trkpt>
      <trkpt lat="52.019357" lon="4.373365">
        <ele>0.00000</ele>
        <time>2026-01-15T00:11:15Z</time>
      </trkpt>
      <trkpt lat="52.019105" lon="4.375531">
        <ele>0.00000</ele>
        <time>2026-01-15T00:12:10Z</time>
      </trkpt>
      <trkpt lat="52.019624" lon="4.376703">
        <ele>0.00000</ele>
        <time>2026-01-15T00:12:45Z</time>
      </trkpt>
      <trkpt lat="52.020204" lon="4.377587">
        <ele>0.00000</ele>
        <time>2026-01-15T00:13:17Z</time>
      </trkpt>
      <trkpt lat="52.020533" lon="4.378713">
        <ele>0.00000</ele>
        <time>2026-01-15T00:13:48Z</time>
      </trkpt>
      <trkpt lat="52.020553" lon="4.37885">
        <ele>0.00000</ele>
        <time>2026-01-15T00:13:51Z</time>
      </trkpt>
      <trkpt lat="52.020511" lon="4.379053">
        <ele>0.00000</ele>
        <time>2026-01-15T00:13:57Z</time>
      </trkpt>
      <trkpt lat="52.020073" lon="4.37954">
        <ele>0.00000</ele>
        <time>2026-01-15T00:14:18Z</time>
      </trkpt>
      <trkpt lat="52.019956" lon="4.379899">
        <ele>0.00000</ele>
        <time>2026-01-15T00:14:28Z</time>
      </trkpt>
      <trkpt lat="52.019804" lon="4.380566">
        <ele>0.00000</ele>
        <time>2026-01-15T00:14:45Z</time>
      </trkpt>
      <trkpt lat="52.019385" lon="4.38103">
        <ele>0.00000</ele>
        <time>2026-01-15T00:15:06Z</time>
      </trkpt>
      <trkpt lat="52.019385" lon="4.38103">
        <ele>0.00000</ele>
        <time>2026-01-15T00:15:06Z</time>
      </trkpt>
      <trkpt lat="52.018651" lon="4.381859">
        <ele>0.00000</ele>
        <time>2026-01-15T00:15:41Z</time>
      </trkpt>
      <trkpt lat="52.019629" lon="4.384313">
        <ele>0.00000</ele>
        <time>2026-01-15T00:16:53Z</time>
      </trkpt>
      <trkpt lat="52.020123" lon="4.385003">
        <ele>0.00000</ele>
        <time>2026-01-15T00:17:19Z</time>
      </trkpt>
      <trkpt lat="52.021063" lon="4.38731">
        <ele>0.00000</ele>
        <time>2026-01-15T00:18:28Z</time>
      </trkpt>
      <trkpt lat="52.021063" lon="4.38731">
        <ele>0.00000</ele>
        <time>2026-01-15T00:18:28Z</time>
      </trkpt>
      <trkpt lat="52.021369" lon="4.388077">
        <ele>0.00000</ele>
        <time>2026-01-15T00:18:50Z</time>
      </trkpt>
      <trkpt lat="52.022004" lon="4.387771">
        <ele>0.00000</ele>
        <time>2026-01-15T00:19:17Z</time>
      </trkpt>
      <trkpt lat="52.026942" lon="4.389077">
        <ele>0.00000</ele>
        <time>2026-01-15T00:22:37Z</time>
      </trkpt>
      <trkpt lat="52.028182" lon="4.389172">
        <ele>0.00000</ele>
        <time>2026-01-15T00:23:27Z</time>
      </trkpt>
      <trkpt lat="52.028346" lon="4.389079">
        <ele>0.00000</ele>
        <time>2026-01-15T00:23:34Z</time>
      </trkpt>
      <trkpt lat="52.029015" lon="4.388383">
        <ele>0.00000</ele>
        <time>2026-01-15T00:24:05Z</time>
      </trkpt>
      <trkpt lat="52.029015" lon="4.388383">
        <ele>0.00000</ele>
        <time>2026-01-15T00:24:05Z</time>
      </trkpt>
      <trkpt lat="52.029774" lon="4.387599">
        <ele>0.00000</ele>
        <time>2026-01-15T00:24:41Z</time>
      </trkpt>
      <trkpt lat="52.029073" lon="4.385953">
        <ele>0.00000</ele>
        <time>2026-01-15T00:25:31Z</time>
      </trkpt>
      <trkpt lat="52.028953" lon="4.385915">
        <ele>0.00000</ele>
        <time>2026-01-15T00:25:36Z</time>
      </trkpt>
      <trkpt lat="52.028401" lon="4.385965">
        <ele>0.00000</ele>
        <time>2026-01-15T00:25:58Z</time>
      </trkpt>
      <trkpt lat="52.028339" lon="4.385939">
        <ele>0.00000</ele>
        <time>2026-01-15T00:26:00Z</time>
      </trkpt>
      <trkpt lat="52.02753" lon="4.38394">
        <ele>0.00000</ele>
        <time>2026-01-15T00:26:59Z</time>
      </trkpt>
      <trkpt lat="52.02753" lon="4.38394">
        <ele>0.00000</ele>
        <time>2026-01-15T00:26:59Z</time>
      </trkpt>
      <trkpt lat="52.0270143" lon="4.3826588">
        <ele>0.00000</ele>
        <time>2026-01-15T00:27:37Z</time>
      </trkpt>
      <trkpt lat="52.0275116" lon="4.3820888">
        <ele>0.00000</ele>
        <time>2026-01-15T00:28:01Z</time>
      </trkpt>
      <trkpt lat="52.0271938" lon="4.3812535">
        <ele>0.00000</ele>
        <time>2026-01-15T00:28:25Z</time>
      </trkpt>
      <trkpt lat="52.0269623" lon="4.3807548">
        <ele>0.00000</ele>
        <time>2026-01-15T00:28:41Z</time>
      </trkpt>
      <trkpt lat="52.0268373" lon="4.3805292">
        <ele>0.00000</ele>
        <time>2026-01-15T00:28:48Z</time>
      </trkpt>
      <trkpt lat="52.0266915" lon="4.3806092">
        <ele>0.00000</ele>
        <time>2026-01-15T00:28:54Z</time>
      </trkpt>
      <trkpt lat="52.0264614" lon="4.3808006">
        <ele>0.00000</ele>
        <time>2026-01-15T00:29:05Z</time>
      </trkpt>
      <trkpt lat="52.026147" lon="4.381233">
        <ele>0.00000</ele>
        <time>2026-01-15T00:29:21Z</time>
      </trkpt>
      <trkpt lat="52.026147" lon="4.381233">
        <ele>0.00000</ele>
        <time>2026-01-15T00:29:21Z</time>
      </trkpt>
      <trkpt lat="52.025368" lon="4.382344">
        <ele>0.00000</ele>
        <time>2026-01-15T00:30:03Z</time>
      </trkpt>
      <trkpt lat="52.024673" lon="4.383983">
        <ele>0.00000</ele>
        <time>2026-01-15T00:30:52Z</time>
      </trkpt>
      <trkpt lat="52.024673" lon="4.383983">
        <ele>0.00000</ele>
        <time>2026-01-15T00:30:52Z</time>
      </trkpt>
      <trkpt lat="52.024184" lon="4.38516">
        <ele>0.00000</ele>
        <time>2026-01-15T00:31:27Z</time>
      </trkpt>
      <trkpt lat="52.023976" lon="4.385543">
        <ele>0.00000</ele>
        <time>2026-01-15T00:31:39Z</time>
      </trkpt>
      <trkpt lat="52.02359" lon="4.386047">
        <ele>0.00000</ele>
        <time>2026-01-15T00:31:59Z</time>
      </trkpt>
      <trkpt lat="52.023067" lon="4.386583">
        <ele>0.00000</ele>
        <time>2026-01-15T00:32:24Z</time>
      </trkpt>
      <trkpt lat="52.0222188" lon="4.3872842">
        <ele>0.00000</ele>
        <time>2026-01-15T00:33:02Z</time>
      </trkpt>
      <trkpt lat="52.022178" lon="4.387115">
        <ele>0.00000</ele>
        <time>2026-01-15T00:33:07Z</time>
      </trkpt>
      <trkpt lat="52.022309" lon="4.386673">
        <ele>0.00000</ele>
        <time>2026-01-15T00:33:19Z</time>
      </trkpt>
      <trkpt lat="52.022404" lon="4.386476">
        <ele>0.00000</ele>
        <time>2026-01-15T00:33:25Z</time>
      </trkpt>
      <trkpt lat="52.022783" lon="4.386089">
        <ele>0.00000</ele>
        <time>2026-01-15T00:33:43Z</time>
      </trkpt>
      <trkpt lat="52.02291" lon="4.38591">
        <ele>0.00000</ele>
        <time>2026-01-15T00:33:49Z</time>
      </trkpt>
      <trkpt lat="52.023888" lon="4.383701">
        <ele>0.00000</ele>
        <time>2026-01-15T00:34:56Z</time>
      </trkpt>
      <trkpt lat="52.024008" lon="4.383638">
        <ele>0.00000</ele>
        <time>2026-01-15T00:35:02Z</time>
      </trkpt>
      <trkpt lat="52.024463" lon="4.383624">
        <ele>0.00000</ele>
        <time>2026-01-15T00:35:20Z</time>
      </trkpt>
      <trkpt lat="52.025091" lon="4.382111">
        <ele>0.00000</ele>
        <time>2026-01-15T00:36:05Z</time>
      </trkpt>
      <trkpt lat="52.025091" lon="4.382111">
        <ele>0.00000</ele>
        <time>2026-01-15T00:36:05Z</time>
      </trkpt>
      <trkpt lat="52.025279" lon="4.381647">
        <ele>0.00000</ele>
        <time>2026-01-15T00:36:18Z</time>
      </trkpt>
      <trkpt lat="52.025673" lon="4.380998">
        <ele>0.00000</ele>
        <time>2026-01-15T00:36:41Z</time>
      </trkpt>
      <trkpt lat="52.025724" lon="4.380772">
        <ele>0.00000</ele>
        <time>2026-01-15T00:36:47Z</time>
      </trkpt>
      <trkpt lat="52.025598" lon="4.379937">
        <ele>0.00000</ele>
        <time>2026-01-15T00:37:08Z</time>
      </trkpt>
      <trkpt lat="52.025419" lon="4.379376">
        <ele>0.00000</ele>
        <time>2026-01-15T00:37:24Z</time>
      </trkpt>
      <trkpt lat="52.025388" lon="4.378589">
        <ele>0.00000</ele>
        <time>2026-01-15T00:37:43Z</time>
      </trkpt>
      <trkpt lat="52.02493" lon="4.377415">
        <ele>0.00000</ele>
        <time>2026-01-15T00:38:17Z</time>
      </trkpt>
      <trkpt lat="52.023895" lon="4.375116">
        <ele>0.00000</ele>
        <time>2026-01-15T00:39:27Z</time>
      </trkpt>
      <trkpt lat="52.022802" lon="4.374566">
        <ele>0.00000</ele>
        <time>2026-01-15T00:40:13Z</time>
      </trkpt>
      <trkpt lat="52.022359" lon="4.37454">
        <ele>0.00000</ele>
        <time>2026-01-15T00:40:31Z</time>
      </trkpt>
      <trkpt lat="52.021251" lon="4.375429">
        <ele>0.00000</ele>
        <time>2026-01-15T00:41:20Z</time>
      </trkpt>
      <trkpt lat="52.021024" lon="4.3763">
        <ele>0.00000</ele>
        <time>2026-01-15T00:41:44Z</time>
      </trkpt>
      <trkpt lat="52.021024" lon="4.3763">
        <ele>0.00000</ele>
        <time>2026-01-15T00:41:44Z</time>
      </trkpt>
      <trkpt lat="52.020809" lon="4.377091">
        <ele>0.00000</ele>
        <time>2026-01-15T00:42:05Z</time>
      </trkpt>
      <trkpt lat="52.020741" lon="4.377175">
        <ele>0.00000</ele>
        <time>2026-01-15T00:42:08Z</time>
      </trkpt>
      <trkpt lat="52.020309" lon="4.377491">
        <ele>0.00000</ele>
        <time>2026-01-15T00:42:27Z</time>
      </trkpt>
      <trkpt lat="52.020071" lon="4.376641">
        <ele>0.00000</ele>
        <time>2026-01-15T00:42:50Z</time>
      </trkpt>
      <trkpt lat="52.020071" lon="4.376641">
        <ele>0.00000</ele>
        <time>2026-01-15T00:42:50Z</time>
      </trkpt>
      <trkpt lat="52.019672" lon="4.375188">
        <ele>0.00000</ele>
        <time>2026-01-15T00:43:30Z</time>
      </trkpt>
      <trkpt lat="52.019676" lon="4.374865">
        <ele>0.00000</ele>
        <time>2026-01-15T00:43:37Z</time>
      </trkpt>
      <trkpt lat="52.020463" lon="4.371733">
        <ele>0.00000</ele>
        <time>2026-01-15T00:45:01Z</time>
      </trkpt>
      <trkpt lat="52.020529" lon="4.370491">
        <ele>0.00000</ele>
        <time>2026-01-15T00:45:32Z</time>
      </trkpt>
      <trkpt lat="52.020919" lon="4.369666">
        <ele>0.00000</ele>
        <time>2026-01-15T00:45:57Z</time>
      </trkpt>
      <trkpt lat="52.020912" lon="4.369593">
        <ele>0.00000</ele>
        <time>2026-01-15T00:45:59Z</time>
      </trkpt>
      <trkpt lat="52.020667" lon="4.369025">
        <ele>0.00000</ele>
        <time>2026-01-15T00:46:16Z</time>
      </trkpt>
      <trkpt lat="52.020763" lon="4.368921">
        <ele>0.00000</ele>
        <time>2026-01-15T00:46:21Z</time>
      </trkpt>
      <trkpt lat="52.021675" lon="4.367882">
        <ele>0.00000</ele>
        <time>2026-01-15T00:47:05Z</time>
      </trkpt>
      <trkpt lat="52.0210299" lon="4.3662232">
        <ele>0.00000</ele>
        <time>2026-01-15T00:47:54Z</time>
      </trkpt>
      <trkpt lat="52.020544" lon="4.365178">
        <ele>0.00000</ele>
        <time>2026-01-15T00:48:26Z</time>
      </trkpt>
      <trkpt lat="52.020499" lon="4.365037">
        <ele>0.00000</ele>
        <time>2026-01-15T00:48:30Z</time>
      </trkpt>
      <trkpt lat="52.020508" lon="4.364923">
        <ele>0.00000</ele>
        <time>2026-01-15T00:48:33Z</time>
      </trkpt>
      <trkpt lat="52.020508" lon="4.364923">
        <ele>0.00000</ele>
        <time>2026-01-15T00:48:33Z</time>
      </trkpt>
      <trkpt lat="52.020502" lon="4.36484">
        <ele>0.00000</ele>
        <time>2026-01-15T00:48:35Z</time>
      </trkpt>
      <trkpt lat="52.018529" lon="4.36022">
        <ele>0.00000</ele>
        <time>2026-01-15T00:50:53Z</time>
      </trkpt>
      <trkpt lat="52.018346" lon="4.35976">
        <ele>0.00000</ele>
        <time>2026-01-15T00:51:07Z</time>
      </trkpt>
      <trkpt lat="52.018249" lon="4.359299">
        <ele>0.00000</ele>
        <time>2026-01-15T00:51:19Z</time>
      </trkpt>
      <trkpt lat="52.018003" lon="4.359563">
        <ele>0.00000</ele>
        <time>2026-01-15T00:51:31Z</time>
      </trkpt>
      <trkpt lat="52.017965" lon="4.359681">
        <ele>0.00000</ele>
        <time>2026-01-15T00:51:34Z</time>
      </trkpt>
      <trkpt lat="52.017867" lon="4.359812">
        <ele>0.00000</ele>
        <time>2026-01-15T00:51:39Z</time>
      </trkpt>
      <trkpt lat="52.017867" lon="4.359812">
        <ele>0.00000</ele>
        <time>2026-01-15T00:51:39Z</time>
      </trkpt>
      <trkpt lat="52.017209" lon="4.360695">
        <ele>0.00000</ele>
        <time>2026-01-15T00:52:13Z</time>
      </trkpt>
      <trkpt lat="52.015498" lon="4.363148">
        <ele>0.00000</ele>
        <time>2026-01-15T00:53:44Z</time>
      </trkpt>
      <trkpt lat="52.014894" lon="4.363967">
        <ele>0.00000</ele>
        <time>2026-01-15T00:54:16Z</time>
      </trkpt>
      <trkpt lat="52.014291" lon="4.364665">
        <ele>0.00000</ele>
        <time>2026-01-15T00:54:46Z</time>
      </trkpt>
      <trkpt lat="52.013946" lon="4.365131">
        <ele>0.00000</ele>
        <time>2026-01-15T00:55:03Z</time>
      </trkpt>
      <trkpt lat="52.013946" lon="4.365131">
        <ele>0.00000</ele>
        <time>2026-01-15T00:55:03Z</time>
      </trkpt>
      <trkpt lat="52.013928" lon="4.365155">
        <ele>0.00000</ele>
        <time>2026-01-15T00:55:04Z</time>
      </trkpt>
      <trkpt lat="52.013877" lon="4.365119">
        <ele>0.00000</ele>
        <time>2026-01-15T00:55:07Z</time>
      </trkpt>
      <trkpt lat="52.013471" lon="4.364217">
        <ele>0.00000</ele>
        <time>2026-01-15T00:55:34Z</time>
      </trkpt>
      <trkpt lat="52.013426" lon="4.364023">
        <ele>0.00000</ele>
        <time>2026-01-15T00:55:39Z</time>
      </trkpt>
      <trkpt lat="52.012529" lon="4.362135">
        <ele>0.00000</ele>
        <time>2026-01-15T00:56:38Z</time>
      </trkpt>
      <trkpt lat="52.01204" lon="4.360979">
        <ele>0.00000</ele>
        <time>2026-01-15T00:57:13Z</time>
      </trkpt>
      <trkpt lat="52.011954" lon="4.360752">
        <ele>0.00000</ele>
        <time>2026-01-15T00:57:19Z</time>
      </trkpt>
      <trkpt lat="52.011939" lon="4.360563">
        <ele>0.00000</ele>
        <time>2026-01-15T00:57:24Z</time>
      </trkpt>
      <trkpt lat="52.011897" lon="4.360475">
        <ele>0.00000</ele>
        <time>2026-01-15T00:57:27Z</time>
      </trkpt>
      <trkpt lat="52.011902" lon="4.3602">
        <ele>0.00000</ele>
        <time>2026-01-15T00:57:33Z</time>
      </trkpt>
      <trkpt lat="52.0119075" lon="4.3595624">
        <ele>0.00000</ele>
        <time>2026-01-15T00:57:49Z</time>
      </trkpt>
      <trkpt lat="52.0117588" lon="4.3590208">
        <ele>0.00000</ele>
        <time>2026-01-15T00:58:04Z</time>
      </trkpt>
      <trkpt lat="52.011571" lon="4.359362">
        <ele>0.00000</ele>
        <time>2026-01-15T00:58:15Z</time>
      </trkpt>
      <trkpt lat="52.011369" lon="4.35963">
        <ele>0.00000</ele>
        <time>2026-01-15T00:58:25Z</time>
      </trkpt>
      <trkpt lat="52.011369" lon="4.35963">
        <ele>0.00000</ele>
        <time>2026-01-15T00:58:25Z</time>
      </trkpt>
      <trkpt lat="52.012089" lon="4.361384">
        <ele>0.00000</ele>
        <time>2026-01-15T00:59:17Z</time>
      </trkpt>
      <trkpt lat="52.012089" lon="4.361384">
        <ele>0.00000</ele>
        <time>2026-01-15T00:59:17Z</time>
      </trkpt>
      <trkpt lat="52.0121327" lon="4.3614956">
        <ele>0.00000</ele>
        <time>2026-01-15T00:59:21Z</time>
      </trkpt>
      <trkpt lat="52.0118317" lon="4.3618146">
        <ele>0.00000</ele>
        <time>2026-01-15T00:59:35Z</time>
      </trkpt>
      <trkpt lat="52.0115717" lon="4.3617894">
        <ele>0.00000</ele>
        <time>2026-01-15T00:59:45Z</time>
      </trkpt>
      <trkpt lat="52.0113907" lon="4.361463">
        <ele>0.00000</ele>
        <time>2026-01-15T00:59:56Z</time>
      </trkpt>
    </trkseg>
  </trk>
</gpx>

