<?xml version="1.0" encoding="UTF-8"?><gpx xmlns="http://www.topografix.com/GPX/1/1" version="1.1" creator="@dwayneparton/geojson-to-gpx"><trk><trkseg><trkpt lat="52.011429" lon="4.361575"/><trkpt lat="52.011599" lon="4.361918"/><trkpt lat="52.011858" lon="4.361913"/><trkpt lat="52.012185" lon="4.361596"/><trkpt lat="52.012468" lon="4.36228"/><trkpt lat="52.013287" lon="4.363957"/><trkpt lat="52.013358" lon="4.364107"/><trkpt lat="52.01347" lon="4.364201"/><trkpt lat="52.013426" lon="4.364016"/><trkpt lat="52.012597" lon="4.362283"/><trkpt lat="52.012074" lon="4.361057"/><trkpt lat="52.011949" lon="4.360743"/><trkpt lat="52.011939" lon="4.360558"/><trkpt lat="52.011902" lon="4.360481"/><trkpt lat="52.011899" lon="4.360188"/><trkpt lat="52.011892" lon="4.35981"/><trkpt lat="52.011899" lon="4.359553"/><trkpt lat="52.011833" lon="4.359335"/><trkpt lat="52.011747" lon="4.35914"/><trkpt lat="52.011661" lon="4.359145"/><trkpt lat="52.011615" lon="4.359271"/><trkpt lat="52.011559" lon="4.359386"/><trkpt lat="52.011364" lon="4.359612"/><trkpt lat="52.011818" lon="4.360714"/><trkpt lat="52.011883" lon="4.360883"/><trkpt lat="52.012138" lon="4.361492"/><trkpt lat="52.011848" lon="4.361814"/><trkpt lat="52.011704" lon="4.361827"/><trkpt lat="52.011564" lon="4.361773"/><trkpt lat="52.011444" lon="4.361553"/></trkseg></trk></gpx>