<?xml version="1.0"?>
<gpx xmlns="http://www.topografix.com/GPX/1/1" version="1.1" creator="afstandmeten.nl" xmlns:xsi="http://www.w3.org/2001/XMLSchema-instance" xsi:schemaLocation="http://www.topografix.com/GPX/1/1 http://www.topografix.com/GPX/1/1/gpx.xsd">
  <trk>
    <name>GTL_2026_2,5km_Optie2</name>
    <desc/>
    <trkseg>
      <trkpt lat="52.0114649" lon="4.3616266">
        <ele>0.00000</ele>
        <time>2025-12-02T00:00:00Z</time>
      </trkpt>
      <trkpt lat="52.01163" lon="4.361791">
        <ele>0.00000</ele>
        <time>2025-12-02T00:00:31Z</time>
      </trkpt>
      <trkpt lat="52.011789" lon="4.361811">
        <ele>0.00000</ele>
        <time>2025-12-02T00:00:55Z</time>
      </trkpt>
      <trkpt lat="52.012113" lon="4.361496">
        <ele>0.00000</ele>
        <time>2025-12-02T00:01:54Z</time>
      </trkpt>
      <trkpt lat="52.012123" lon="4.361518">
        <ele>0.00000</ele>
        <time>2025-12-02T00:01:56Z</time>
      </trkpt>
      <trkpt lat="52.012123" lon="4.361518">
        <ele>0.00000</ele>
        <time>2025-12-02T00:01:56Z</time>
      </trkpt>
      <trkpt lat="52.013362" lon="4.36411">
        <ele>0.00000</ele>
        <time>2025-12-02T00:07:10Z</time>
      </trkpt>
      <trkpt lat="52.013471" lon="4.364217">
        <ele>0.00000</ele>
        <time>2025-12-02T00:07:30Z</time>
      </trkpt>
      <trkpt lat="52.013868" lon="4.365099">
        <ele>0.00000</ele>
        <time>2025-12-02T00:09:14Z</time>
      </trkpt>
      <trkpt lat="52.013868" lon="4.365099">
        <ele>0.00000</ele>
        <time>2025-12-02T00:09:14Z</time>
      </trkpt>
      <trkpt lat="52.013928" lon="4.365155">
        <ele>0.00000</ele>
        <time>2025-12-02T00:09:25Z</time>
      </trkpt>
      <trkpt lat="52.014894" lon="4.363967">
        <ele>0.00000</ele>
        <time>2025-12-02T00:12:33Z</time>
      </trkpt>
      <trkpt lat="52.018003" lon="4.359563">
        <ele>0.00000</ele>
        <time>2025-12-02T00:23:13Z</time>
      </trkpt>
      <trkpt lat="52.018257" lon="4.359348">
        <ele>0.00000</ele>
        <time>2025-12-02T00:23:57Z</time>
      </trkpt>
      <trkpt lat="52.018257" lon="4.359348">
        <ele>0.00000</ele>
        <time>2025-12-02T00:23:57Z</time>
      </trkpt>
      <trkpt lat="52.018003" lon="4.359563">
        <ele>0.00000</ele>
        <time>2025-12-02T00:24:42Z</time>
      </trkpt>
      <trkpt lat="52.015498" lon="4.363148">
        <ele>0.00000</ele>
        <time>2025-12-02T00:33:19Z</time>
      </trkpt>
      <trkpt lat="52.013928" lon="4.365155">
        <ele>0.00000</ele>
        <time>2025-12-02T00:38:29Z</time>
      </trkpt>
      <trkpt lat="52.013463" lon="4.36418">
        <ele>0.00000</ele>
        <time>2025-12-02T00:40:27Z</time>
      </trkpt>
      <trkpt lat="52.013426" lon="4.364023">
        <ele>0.00000</ele>
        <time>2025-12-02T00:40:43Z</time>
      </trkpt>
      <trkpt lat="52.012529" lon="4.362135">
        <ele>0.00000</ele>
        <time>2025-12-02T00:44:31Z</time>
      </trkpt>
      <trkpt lat="52.011954" lon="4.360752">
        <ele>0.00000</ele>
        <time>2025-12-02T00:47:10Z</time>
      </trkpt>
      <trkpt lat="52.011939" lon="4.360563">
        <ele>0.00000</ele>
        <time>2025-12-02T00:47:29Z</time>
      </trkpt>
      <trkpt lat="52.011897" lon="4.360475">
        <ele>0.00000</ele>
        <time>2025-12-02T00:47:39Z</time>
      </trkpt>
      <trkpt lat="52.011902" lon="4.3602">
        <ele>0.00000</ele>
        <time>2025-12-02T00:48:05Z</time>
      </trkpt>
      <trkpt lat="52.01204" lon="4.36006">
        <ele>0.00000</ele>
        <time>2025-12-02T00:48:31Z</time>
      </trkpt>
      <trkpt lat="52.01204" lon="4.36006">
        <ele>0.00000</ele>
        <time>2025-12-02T00:48:31Z</time>
      </trkpt>
      <trkpt lat="52.012183" lon="4.359915">
        <ele>0.00000</ele>
        <time>2025-12-02T00:48:57Z</time>
      </trkpt>
      <trkpt lat="52.011706" lon="4.358571">
        <ele>0.00000</ele>
        <time>2025-12-02T00:51:25Z</time>
      </trkpt>
      <trkpt lat="52.011647" lon="4.358623">
        <ele>0.00000</ele>
        <time>2025-12-02T00:51:35Z</time>
      </trkpt>
      <trkpt lat="52.011647" lon="4.358623">
        <ele>0.00000</ele>
        <time>2025-12-02T00:51:35Z</time>
      </trkpt>
      <trkpt lat="52.011374" lon="4.358864">
        <ele>0.00000</ele>
        <time>2025-12-02T00:52:24Z</time>
      </trkpt>
      <trkpt lat="52.011571" lon="4.359362">
        <ele>0.00000</ele>
        <time>2025-12-02T00:53:20Z</time>
      </trkpt>
      <trkpt lat="52.011408" lon="4.359555">
        <ele>0.00000</ele>
        <time>2025-12-02T00:53:51Z</time>
      </trkpt>
      <trkpt lat="52.011408" lon="4.359555">
        <ele>0.00000</ele>
        <time>2025-12-02T00:53:51Z</time>
      </trkpt>
      <trkpt lat="52.011361" lon="4.359611">
        <ele>0.00000</ele>
        <time>2025-12-02T00:54:01Z</time>
      </trkpt>
      <trkpt lat="52.012007" lon="4.361188">
        <ele>0.00000</ele>
        <time>2025-12-02T00:57:01Z</time>
      </trkpt>
      <trkpt lat="52.012007" lon="4.361188">
        <ele>0.00000</ele>
        <time>2025-12-02T00:57:01Z</time>
      </trkpt>
      <trkpt lat="52.012165" lon="4.361567">
        <ele>0.00000</ele>
        <time>2025-12-02T00:57:45Z</time>
      </trkpt>
      <trkpt lat="52.01215" lon="4.361583">
        <ele>0.00000</ele>
        <time>2025-12-02T00:57:48Z</time>
      </trkpt>
      <trkpt lat="52.012113" lon="4.361496">
        <ele>0.00000</ele>
        <time>2025-12-02T00:57:58Z</time>
      </trkpt>
      <trkpt lat="52.011789" lon="4.361811">
        <ele>0.00000</ele>
        <time>2025-12-02T00:58:57Z</time>
      </trkpt>
      <trkpt lat="52.01163" lon="4.361791">
        <ele>0.00000</ele>
        <time>2025-12-02T00:59:21Z</time>
      </trkpt>
      <trkpt lat="52.01147" lon="4.361561">
        <ele>0.00000</ele>
        <time>2025-12-02T00:59:55Z</time>
      </trkpt>
    </trkseg>
  </trk>
</gpx>

