<?xml version='1.0' encoding='UTF-8'?>
<gpx version="1.1" creator="https://www.komoot.de" xmlns="http://www.topografix.com/GPX/1/1" xmlns:xsi="http://www.w3.org/2001/XMLSchema-instance" xsi:schemaLocation="http://www.topografix.com/GPX/1/1 http://www.topografix.com/GPX/1/1/gpx.xsd">
  <metadata>
    <name>Droomtijdloop 2021</name>
    <author>
      <link href="https://www.komoot.de">
        <text>komoot</text>
        <type>text/html</type>
      </link>
    </author>
  </metadata>
  <trk>
    <name>Droomtijdloop 2021</name>
    <trkseg>
      <trkpt lat="52.005545" lon="4.386309">
        <ele>-0.351565</ele>
        <time>2021-09-17T13:51:22.423Z</time>
      </trkpt>
      <trkpt lat="52.005544" lon="4.386307">
        <ele>-0.351565</ele>
        <time>2021-09-17T13:51:22.486Z</time>
      </trkpt>
      <trkpt lat="52.005412" lon="4.385743">
        <ele>-0.351565</ele>
        <time>2021-09-17T13:51:38.208Z</time>
      </trkpt>
      <trkpt lat="52.005346" lon="4.385496">
        <ele>-0.351565</ele>
        <time>2021-09-17T13:51:45.303Z</time>
      </trkpt>
      <trkpt lat="52.005628" lon="4.385254">
        <ele>-0.351565</ele>
        <time>2021-09-17T13:51:58.980Z</time>
      </trkpt>
      <trkpt lat="52.006061" lon="4.384812">
        <ele>0.103014</ele>
        <time>2021-09-17T13:52:20.988Z</time>
      </trkpt>
      <trkpt lat="52.006594" lon="4.384269">
        <ele>0.711797</ele>
        <time>2021-09-17T13:52:47.815Z</time>
      </trkpt>
      <trkpt lat="52.006649" lon="4.384211">
        <ele>0.775248</ele>
        <time>2021-09-17T13:52:50.720Z</time>
      </trkpt>
      <trkpt lat="52.006623" lon="4.384142">
        <ele>0.823437</ele>
        <time>2021-09-17T13:52:52.798Z</time>
      </trkpt>
      <trkpt lat="52.006587" lon="4.384094">
        <ele>0.868503</ele>
        <time>2021-09-17T13:52:54.746Z</time>
      </trkpt>
      <trkpt lat="52.006538" lon="4.384047">
        <ele>0.923565</ele>
        <time>2021-09-17T13:52:57.164Z</time>
      </trkpt>
      <trkpt lat="52.006374" lon="4.383223">
        <ele>1.422666</ele>
        <time>2021-09-17T13:53:19.531Z</time>
      </trkpt>
      <trkpt lat="52.006367" lon="4.383198">
        <ele>1.433606</ele>
        <time>2021-09-17T13:53:20.315Z</time>
      </trkpt>
      <trkpt lat="52.006261" lon="4.382774">
        <ele>1.615894</ele>
        <time>2021-09-17T13:53:32.074Z</time>
      </trkpt>
      <trkpt lat="52.006140" lon="4.382346">
        <ele>1.803498</ele>
        <time>2021-09-17T13:53:44.375Z</time>
      </trkpt>
      <trkpt lat="52.006068" lon="4.382072">
        <ele>1.922169</ele>
        <time>2021-09-17T13:53:52.201Z</time>
      </trkpt>
      <trkpt lat="52.006017" lon="4.381779">
        <ele>2.043456</ele>
        <time>2021-09-17T13:54:00.106Z</time>
      </trkpt>
      <trkpt lat="52.006005" lon="4.381703">
        <ele>2.074709</ele>
        <time>2021-09-17T13:54:02.103Z</time>
      </trkpt>
      <trkpt lat="52.005727" lon="4.380675">
        <ele>2.521965</ele>
        <time>2021-09-17T13:54:31.159Z</time>
      </trkpt>
      <trkpt lat="52.005541" lon="4.379987">
        <ele>2.680821</ele>
        <time>2021-09-17T13:54:50.354Z</time>
      </trkpt>
      <trkpt lat="52.005361" lon="4.379325">
        <ele>2.818306</ele>
        <time>2021-09-17T13:55:08.941Z</time>
      </trkpt>
      <trkpt lat="52.005267" lon="4.378978">
        <ele>2.890327</ele>
        <time>2021-09-17T13:55:18.641Z</time>
      </trkpt>
      <trkpt lat="52.005191" lon="4.378695">
        <ele>2.948984</ele>
        <time>2021-09-17T13:55:26.564Z</time>
      </trkpt>
      <trkpt lat="52.005113" lon="4.378409">
        <ele>3.008410</ele>
        <time>2021-09-17T13:55:34.542Z</time>
      </trkpt>
      <trkpt lat="52.005018" lon="4.378065">
        <ele>3.080037</ele>
        <time>2021-09-17T13:55:44.120Z</time>
      </trkpt>
      <trkpt lat="52.004704" lon="4.376886">
        <ele>3.101085</ele>
        <time>2021-09-17T13:56:16.569Z</time>
      </trkpt>
      <trkpt lat="52.004623" lon="4.376579">
        <ele>3.099107</ele>
        <time>2021-09-17T13:56:25.001Z</time>
      </trkpt>
      <trkpt lat="52.004457" lon="4.375969">
        <ele>3.095157</ele>
        <time>2021-09-17T13:56:41.721Z</time>
      </trkpt>
      <trkpt lat="52.004365" lon="4.375631">
        <ele>3.092968</ele>
        <time>2021-09-17T13:56:51.103Z</time>
      </trkpt>
      <trkpt lat="52.004365" lon="4.375632">
        <ele>3.092962</ele>
        <time>2021-09-17T13:56:51.116Z</time>
      </trkpt>
      <trkpt lat="52.004137" lon="4.375791">
        <ele>3.090575</ele>
        <time>2021-09-17T13:57:01.344Z</time>
      </trkpt>
      <trkpt lat="52.004144" lon="4.375730">
        <ele>3.085414</ele>
        <time>2021-09-17T13:57:02.940Z</time>
      </trkpt>
      <trkpt lat="52.004130" lon="4.375651">
        <ele>3.077515</ele>
        <time>2021-09-17T13:57:05.041Z</time>
      </trkpt>
      <trkpt lat="52.004097" lon="4.375553">
        <ele>3.066782</ele>
        <time>2021-09-17T13:57:07.885Z</time>
      </trkpt>
      <trkpt lat="52.003926" lon="4.375708">
        <ele>3.036218</ele>
        <time>2021-09-17T13:57:15.966Z</time>
      </trkpt>
      <trkpt lat="52.003605" lon="4.375939">
        <ele>2.981419</ele>
        <time>2021-09-17T13:57:30.571Z</time>
      </trkpt>
      <trkpt lat="52.003521" lon="4.376000">
        <ele>2.967057</ele>
        <time>2021-09-17T13:57:34.368Z</time>
      </trkpt>
      <trkpt lat="52.003341" lon="4.376131">
        <ele>2.936271</ele>
        <time>2021-09-17T13:57:42.491Z</time>
      </trkpt>
      <trkpt lat="52.003293" lon="4.376163">
        <ele>2.928173</ele>
        <time>2021-09-17T13:57:44.650Z</time>
      </trkpt>
      <trkpt lat="52.003130" lon="4.375577">
        <ele>2.866385</ele>
        <time>2021-09-17T13:58:00.807Z</time>
      </trkpt>
      <trkpt lat="52.003063" lon="4.375335">
        <ele>2.840888</ele>
        <time>2021-09-17T13:58:07.418Z</time>
      </trkpt>
      <trkpt lat="52.003032" lon="4.375218">
        <ele>2.828649</ele>
        <time>2021-09-17T13:58:10.613Z</time>
      </trkpt>
      <trkpt lat="52.002853" lon="4.374523">
        <ele>2.386735</ele>
        <time>2021-09-17T13:58:29.188Z</time>
      </trkpt>
      <trkpt lat="52.002715" lon="4.374000">
        <ele>1.954596</ele>
        <time>2021-09-17T13:58:43.061Z</time>
      </trkpt>
      <trkpt lat="52.002663" lon="4.373806">
        <ele>1.793904</ele>
        <time>2021-09-17T13:58:48.181Z</time>
      </trkpt>
      <trkpt lat="52.002520" lon="4.373264">
        <ele>1.346071</ele>
        <time>2021-09-17T13:59:02.588Z</time>
      </trkpt>
      <trkpt lat="52.002437" lon="4.372952">
        <ele>1.087945</ele>
        <time>2021-09-17T13:59:10.894Z</time>
      </trkpt>
      <trkpt lat="52.002396" lon="4.372792">
        <ele>0.956326</ele>
        <time>2021-09-17T13:59:15.098Z</time>
      </trkpt>
      <trkpt lat="52.002359" lon="4.372648">
        <ele>0.837821</ele>
        <time>2021-09-17T13:59:18.921Z</time>
      </trkpt>
      <trkpt lat="52.002313" lon="4.372470">
        <ele>0.691210</ele>
        <time>2021-09-17T13:59:23.614Z</time>
      </trkpt>
      <trkpt lat="52.002266" lon="4.372292">
        <ele>0.584511</ele>
        <time>2021-09-17T13:59:28.388Z</time>
      </trkpt>
      <trkpt lat="52.002266" lon="4.372292">
        <ele>0.584511</ele>
        <time>2021-09-17T13:59:28.401Z</time>
      </trkpt>
      <trkpt lat="52.002220" lon="4.372118">
        <ele>0.564791</ele>
        <time>2021-09-17T13:59:33.100Z</time>
      </trkpt>
      <trkpt lat="52.002191" lon="4.372009">
        <ele>0.552425</ele>
        <time>2021-09-17T13:59:36.063Z</time>
      </trkpt>
      <trkpt lat="52.002186" lon="4.371991">
        <ele>0.550368</ele>
        <time>2021-09-17T13:59:36.493Z</time>
      </trkpt>
      <trkpt lat="52.002168" lon="4.371921">
        <ele>0.542468</ele>
        <time>2021-09-17T13:59:38.360Z</time>
      </trkpt>
      <trkpt lat="52.002226" lon="4.371882">
        <ele>0.531849</ele>
        <time>2021-09-17T13:59:40.932Z</time>
      </trkpt>
      <trkpt lat="52.002265" lon="4.371834">
        <ele>0.523572</ele>
        <time>2021-09-17T13:59:42.845Z</time>
      </trkpt>
      <trkpt lat="52.002430" lon="4.371721">
        <ele>0.493281</ele>
        <time>2021-09-17T13:59:50.137Z</time>
      </trkpt>
      <trkpt lat="52.002633" lon="4.371582">
        <ele>0.456016</ele>
        <time>2021-09-17T13:59:59.014Z</time>
      </trkpt>
      <trkpt lat="52.002870" lon="4.371410">
        <ele>0.412105</ele>
        <time>2021-09-17T14:00:09.650Z</time>
      </trkpt>
      <trkpt lat="52.002982" lon="4.371329">
        <ele>0.391366</ele>
        <time>2021-09-17T14:00:14.651Z</time>
      </trkpt>
      <trkpt lat="52.003015" lon="4.371308">
        <ele>0.385371</ele>
        <time>2021-09-17T14:00:16.147Z</time>
      </trkpt>
      <trkpt lat="52.003067" lon="4.371201">
        <ele>0.371175</ele>
        <time>2021-09-17T14:00:19.678Z</time>
      </trkpt>
      <trkpt lat="52.003098" lon="4.371137">
        <ele>0.362694</ele>
        <time>2021-09-17T14:00:21.682Z</time>
      </trkpt>
      <trkpt lat="52.003133" lon="4.371091">
        <ele>0.355078</ele>
        <time>2021-09-17T14:00:23.565Z</time>
      </trkpt>
      <trkpt lat="52.003191" lon="4.371050">
        <ele>0.344378</ele>
        <time>2021-09-17T14:00:26.234Z</time>
      </trkpt>
      <trkpt lat="52.003225" lon="4.371032">
        <ele>0.338329</ele>
        <time>2021-09-17T14:00:27.699Z</time>
      </trkpt>
      <trkpt lat="52.003284" lon="4.371001">
        <ele>0.327840</ele>
        <time>2021-09-17T14:00:30.327Z</time>
      </trkpt>
      <trkpt lat="52.003234" lon="4.370955">
        <ele>0.318119</ele>
        <time>2021-09-17T14:00:32.909Z</time>
      </trkpt>
      <trkpt lat="52.003192" lon="4.370842">
        <ele>0.304373</ele>
        <time>2021-09-17T14:00:36.234Z</time>
      </trkpt>
      <trkpt lat="52.002915" lon="4.369867">
        <ele>0.738961</ele>
        <time>2021-09-17T14:01:04.779Z</time>
      </trkpt>
      <trkpt lat="52.002467" lon="4.368247">
        <ele>1.627668</ele>
        <time>2021-09-17T14:01:51.163Z</time>
      </trkpt>
      <trkpt lat="52.002443" lon="4.368105">
        <ele>1.701357</ele>
        <time>2021-09-17T14:01:54.976Z</time>
      </trkpt>
      <trkpt lat="52.002383" lon="4.367928">
        <ele>1.736725</ele>
        <time>2021-09-17T14:02:00.082Z</time>
      </trkpt>
      <trkpt lat="52.002174" lon="4.367120">
        <ele>1.638947</ele>
        <time>2021-09-17T14:02:22.359Z</time>
      </trkpt>
      <trkpt lat="52.002136" lon="4.366969">
        <ele>1.620747</ele>
        <time>2021-09-17T14:02:26.457Z</time>
      </trkpt>
      <trkpt lat="52.002143" lon="4.366898">
        <ele>1.612725</ele>
        <time>2021-09-17T14:02:28.276Z</time>
      </trkpt>
      <trkpt lat="52.002142" lon="4.366879">
        <ele>1.610598</ele>
        <time>2021-09-17T14:02:28.739Z</time>
      </trkpt>
      <trkpt lat="52.002139" lon="4.366824">
        <ele>1.604437</ele>
        <time>2021-09-17T14:02:30.122Z</time>
      </trkpt>
      <trkpt lat="52.002121" lon="4.366754">
        <ele>1.595974</ele>
        <time>2021-09-17T14:02:32.018Z</time>
      </trkpt>
      <trkpt lat="52.002101" lon="4.366730">
        <ele>1.591468</ele>
        <time>2021-09-17T14:02:33.022Z</time>
      </trkpt>
      <trkpt lat="52.002082" lon="4.366707">
        <ele>1.587173</ele>
        <time>2021-09-17T14:02:34.029Z</time>
      </trkpt>
      <trkpt lat="52.002059" lon="4.366691">
        <ele>1.582639</ele>
        <time>2021-09-17T14:02:35.031Z</time>
      </trkpt>
      <trkpt lat="52.002021" lon="4.366659">
        <ele>1.574882</ele>
        <time>2021-09-17T14:02:36.788Z</time>
      </trkpt>
      <trkpt lat="52.001982" lon="4.366565">
        <ele>1.562236</ele>
        <time>2021-09-17T14:02:39.614Z</time>
      </trkpt>
      <trkpt lat="52.001850" lon="4.366179">
        <ele>1.512973</ele>
        <time>2021-09-17T14:02:50.593Z</time>
      </trkpt>
      <trkpt lat="52.001850" lon="4.366076">
        <ele>1.501482</ele>
        <time>2021-09-17T14:02:53.158Z</time>
      </trkpt>
      <trkpt lat="52.001879" lon="4.366014">
        <ele>1.492795</ele>
        <time>2021-09-17T14:02:55.090Z</time>
      </trkpt>
      <trkpt lat="52.002040" lon="4.365717">
        <ele>1.448645</ele>
        <time>2021-09-17T14:03:04.885Z</time>
      </trkpt>
      <trkpt lat="52.002081" lon="4.365473">
        <ele>1.422920</ele>
        <time>2021-09-17T14:03:11.213Z</time>
      </trkpt>
      <trkpt lat="52.002068" lon="4.365203">
        <ele>1.425029</ele>
        <time>2021-09-17T14:03:18.009Z</time>
      </trkpt>
      <trkpt lat="52.002053" lon="4.365107">
        <ele>1.425800</ele>
        <time>2021-09-17T14:03:20.455Z</time>
      </trkpt>
      <trkpt lat="52.001918" lon="4.364600">
        <ele>1.430102</ele>
        <time>2021-09-17T14:03:34.358Z</time>
      </trkpt>
      <trkpt lat="52.001834" lon="4.364307">
        <ele>1.432618</ele>
        <time>2021-09-17T14:03:42.541Z</time>
      </trkpt>
      <trkpt lat="52.001776" lon="4.364213">
        <ele>1.433655</ele>
        <time>2021-09-17T14:03:45.938Z</time>
      </trkpt>
      <trkpt lat="52.001722" lon="4.364148">
        <ele>1.434505</ele>
        <time>2021-09-17T14:03:48.665Z</time>
      </trkpt>
      <trkpt lat="52.001722" lon="4.364148">
        <ele>1.434505</ele>
        <time>2021-09-17T14:03:48.679Z</time>
      </trkpt>
      <trkpt lat="52.001722" lon="4.364148">
        <ele>1.434505</ele>
        <time>2021-09-17T14:03:48.684Z</time>
      </trkpt>
      <trkpt lat="52.001735" lon="4.364010">
        <ele>1.435592</ele>
        <time>2021-09-17T14:03:52.199Z</time>
      </trkpt>
      <trkpt lat="52.001765" lon="4.363940">
        <ele>1.436256</ele>
        <time>2021-09-17T14:03:54.392Z</time>
      </trkpt>
      <trkpt lat="52.001770" lon="4.363928">
        <ele>1.436369</ele>
        <time>2021-09-17T14:03:54.748Z</time>
      </trkpt>
      <trkpt lat="52.001880" lon="4.363841">
        <ele>1.437916</ele>
        <time>2021-09-17T14:03:59.890Z</time>
      </trkpt>
      <trkpt lat="52.001944" lon="4.363790">
        <ele>1.438818</ele>
        <time>2021-09-17T14:04:02.803Z</time>
      </trkpt>
      <trkpt lat="52.002010" lon="4.363750">
        <ele>1.439709</ele>
        <time>2021-09-17T14:04:05.680Z</time>
      </trkpt>
      <trkpt lat="52.002180" lon="4.363645">
        <ele>1.442010</ele>
        <time>2021-09-17T14:04:13.319Z</time>
      </trkpt>
      <trkpt lat="52.003175" lon="4.362886">
        <ele>1.803928</ele>
        <time>2021-09-17T14:04:59.208Z</time>
      </trkpt>
      <trkpt lat="52.003781" lon="4.362452">
        <ele>2.092462</ele>
        <time>2021-09-17T14:05:26.950Z</time>
      </trkpt>
      <trkpt lat="52.003969" lon="4.362299">
        <ele>2.184072</ele>
        <time>2021-09-17T14:05:35.647Z</time>
      </trkpt>
      <trkpt lat="52.004017" lon="4.362273">
        <ele>2.206116</ele>
        <time>2021-09-17T14:05:37.787Z</time>
      </trkpt>
      <trkpt lat="52.004050" lon="4.362264">
        <ele>2.220694</ele>
        <time>2021-09-17T14:05:39.178Z</time>
      </trkpt>
      <trkpt lat="52.004191" lon="4.362250">
        <ele>2.216625</ele>
        <time>2021-09-17T14:05:45.060Z</time>
      </trkpt>
      <trkpt lat="52.004348" lon="4.362152">
        <ele>2.199398</ele>
        <time>2021-09-17T14:05:52.018Z</time>
      </trkpt>
      <trkpt lat="52.004428" lon="4.362111">
        <ele>2.190806</ele>
        <time>2021-09-17T14:05:55.469Z</time>
      </trkpt>
      <trkpt lat="52.004652" lon="4.361981">
        <ele>2.166441</ele>
        <time>2021-09-17T14:06:05.223Z</time>
      </trkpt>
      <trkpt lat="52.004999" lon="4.361766">
        <ele>2.128401</ele>
        <time>2021-09-17T14:06:20.372Z</time>
      </trkpt>
      <trkpt lat="52.005025" lon="4.361749">
        <ele>2.125531</ele>
        <time>2021-09-17T14:06:21.523Z</time>
      </trkpt>
      <trkpt lat="52.005162" lon="4.361664">
        <ele>2.110509</ele>
        <time>2021-09-17T14:06:27.514Z</time>
      </trkpt>
      <trkpt lat="52.005166" lon="4.361661">
        <ele>2.110058</ele>
        <time>2021-09-17T14:06:27.693Z</time>
      </trkpt>
      <trkpt lat="52.005302" lon="4.361473">
        <ele>2.091767</ele>
        <time>2021-09-17T14:06:34.910Z</time>
      </trkpt>
      <trkpt lat="52.005480" lon="4.361458">
        <ele>2.073510</ele>
        <time>2021-09-17T14:06:42.182Z</time>
      </trkpt>
      <trkpt lat="52.005520" lon="4.361519">
        <ele>2.067890</ele>
        <time>2021-09-17T14:06:44.424Z</time>
      </trkpt>
      <trkpt lat="52.005942" lon="4.362560">
        <ele>2.151110</ele>
        <time>2021-09-17T14:07:15.821Z</time>
      </trkpt>
      <trkpt lat="52.005952" lon="4.362598">
        <ele>2.156089</ele>
        <time>2021-09-17T14:07:16.893Z</time>
      </trkpt>
      <trkpt lat="52.005957" lon="4.362636">
        <ele>2.160772</ele>
        <time>2021-09-17T14:07:17.868Z</time>
      </trkpt>
      <trkpt lat="52.006014" lon="4.362630">
        <ele>2.171952</ele>
        <time>2021-09-17T14:07:20.244Z</time>
      </trkpt>
      <trkpt lat="52.006135" lon="4.362737">
        <ele>2.198919</ele>
        <time>2021-09-17T14:07:25.928Z</time>
      </trkpt>
      <trkpt lat="52.006515" lon="4.363653">
        <ele>2.332017</ele>
        <time>2021-09-17T14:07:54.051Z</time>
      </trkpt>
      <trkpt lat="52.006524" lon="4.363714">
        <ele>2.339576</ele>
        <time>2021-09-17T14:07:55.652Z</time>
      </trkpt>
      <trkpt lat="52.006561" lon="4.363807">
        <ele>2.352918</ele>
        <time>2021-09-17T14:07:58.612Z</time>
      </trkpt>
      <trkpt lat="52.006590" lon="4.363839">
        <ele>2.359781</ele>
        <time>2021-09-17T14:08:00.050Z</time>
      </trkpt>
      <trkpt lat="52.006658" lon="4.363910">
        <ele>2.375604</ele>
        <time>2021-09-17T14:08:03.458Z</time>
      </trkpt>
      <trkpt lat="52.006841" lon="4.364342">
        <ele>2.592558</ele>
        <time>2021-09-17T14:08:16.945Z</time>
      </trkpt>
      <trkpt lat="52.007370" lon="4.365587">
        <ele>3.444839</ele>
        <time>2021-09-17T14:08:56.688Z</time>
      </trkpt>
      <trkpt lat="52.007344" lon="4.365669">
        <ele>3.496805</ele>
        <time>2021-09-17T14:08:59.245Z</time>
      </trkpt>
      <trkpt lat="52.007377" lon="4.365739">
        <ele>3.546478</ele>
        <time>2021-09-17T14:09:01.577Z</time>
      </trkpt>
      <trkpt lat="52.007548" lon="4.366098">
        <ele>3.802212</ele>
        <time>2021-09-17T14:09:13.615Z</time>
      </trkpt>
      <trkpt lat="52.007551" lon="4.366144">
        <ele>3.828272</ele>
        <time>2021-09-17T14:09:14.877Z</time>
      </trkpt>
      <trkpt lat="52.007583" lon="4.366218">
        <ele>3.879221</ele>
        <time>2021-09-17T14:09:17.212Z</time>
      </trkpt>
      <trkpt lat="52.007614" lon="4.366247">
        <ele>3.911961</ele>
        <time>2021-09-17T14:09:18.675Z</time>
      </trkpt>
      <trkpt lat="52.007644" lon="4.366318">
        <ele>3.960477</ele>
        <time>2021-09-17T14:09:20.908Z</time>
      </trkpt>
      <trkpt lat="52.007823" lon="4.366734">
        <ele>4.089716</ele>
        <time>2021-09-17T14:09:34.067Z</time>
      </trkpt>
      <trkpt lat="52.008067" lon="4.367290">
        <ele>4.177872</ele>
        <time>2021-09-17T14:09:51.632Z</time>
      </trkpt>
      <trkpt lat="52.008127" lon="4.367423">
        <ele>4.199161</ele>
        <time>2021-09-17T14:09:55.790Z</time>
      </trkpt>
      <trkpt lat="52.008385" lon="4.368007">
        <ele>4.291966</ele>
        <time>2021-09-17T14:10:14.162Z</time>
      </trkpt>
      <trkpt lat="52.008539" lon="4.368350">
        <ele>4.346776</ele>
        <time>2021-09-17T14:10:24.849Z</time>
      </trkpt>
      <trkpt lat="52.008787" lon="4.368761">
        <ele>4.417938</ele>
        <time>2021-09-17T14:10:39.343Z</time>
      </trkpt>
      <trkpt lat="52.008808" lon="4.368796">
        <ele>4.396309</ele>
        <time>2021-09-17T14:10:40.577Z</time>
      </trkpt>
      <trkpt lat="52.009315" lon="4.369306">
        <ele>3.967605</ele>
        <time>2021-09-17T14:11:04.687Z</time>
      </trkpt>
      <trkpt lat="52.009573" lon="4.369559">
        <ele>3.750955</ele>
        <time>2021-09-17T14:11:16.795Z</time>
      </trkpt>
      <trkpt lat="52.009697" lon="4.369594">
        <ele>3.660473</ele>
        <time>2021-09-17T14:11:21.823Z</time>
      </trkpt>
      <trkpt lat="52.010253" lon="4.369560">
        <ele>3.260473</ele>
        <time>2021-09-17T14:11:44.191Z</time>
      </trkpt>
      <trkpt lat="52.010305" lon="4.369510">
        <ele>3.217032</ele>
        <time>2021-09-17T14:11:46.620Z</time>
      </trkpt>
      <trkpt lat="52.010296" lon="4.369468">
        <ele>3.197353</ele>
        <time>2021-09-17T14:11:47.728Z</time>
      </trkpt>
      <trkpt lat="52.010296" lon="4.369417">
        <ele>3.174785</ele>
        <time>2021-09-17T14:11:48.980Z</time>
      </trkpt>
      <trkpt lat="52.010296" lon="4.369397">
        <ele>3.165935</ele>
        <time>2021-09-17T14:11:49.478Z</time>
      </trkpt>
      <trkpt lat="52.010289" lon="4.369223">
        <ele>3.097347</ele>
        <time>2021-09-17T14:11:53.809Z</time>
      </trkpt>
      <trkpt lat="52.010280" lon="4.368977">
        <ele>3.012566</ele>
        <time>2021-09-17T14:11:59.920Z</time>
      </trkpt>
      <trkpt lat="52.010277" lon="4.368942">
        <ele>3.000409</ele>
        <time>2021-09-17T14:12:00.785Z</time>
      </trkpt>
      <trkpt lat="52.010276" lon="4.368923">
        <ele>2.993848</ele>
        <time>2021-09-17T14:12:01.262Z</time>
      </trkpt>
      <trkpt lat="52.010270" lon="4.368854">
        <ele>2.969874</ele>
        <time>2021-09-17T14:12:03.000Z</time>
      </trkpt>
      <trkpt lat="52.010307" lon="4.368846">
        <ele>2.949012</ele>
        <time>2021-09-17T14:12:04.441Z</time>
      </trkpt>
      <trkpt lat="52.010455" lon="4.368745">
        <ele>2.859289</ele>
        <time>2021-09-17T14:12:10.961Z</time>
      </trkpt>
      <trkpt lat="52.010516" lon="4.368727">
        <ele>2.824637</ele>
        <time>2021-09-17T14:12:13.447Z</time>
      </trkpt>
      <trkpt lat="52.010610" lon="4.368751">
        <ele>2.771453</ele>
        <time>2021-09-17T14:12:17.304Z</time>
      </trkpt>
      <trkpt lat="52.010656" lon="4.368757">
        <ele>2.745660</ele>
        <time>2021-09-17T14:12:19.134Z</time>
      </trkpt>
      <trkpt lat="52.010742" lon="4.368706">
        <ele>2.694490</ele>
        <time>2021-09-17T14:12:22.844Z</time>
      </trkpt>
      <trkpt lat="52.010776" lon="4.368685">
        <ele>2.674160</ele>
        <time>2021-09-17T14:12:24.330Z</time>
      </trkpt>
      <trkpt lat="52.010800" lon="4.368653">
        <ele>2.656806</ele>
        <time>2021-09-17T14:12:25.611Z</time>
      </trkpt>
      <trkpt lat="52.010806" lon="4.368632">
        <ele>2.648841</ele>
        <time>2021-09-17T14:12:26.181Z</time>
      </trkpt>
      <trkpt lat="52.010816" lon="4.368582">
        <ele>2.630755</ele>
        <time>2021-09-17T14:12:27.496Z</time>
      </trkpt>
      <trkpt lat="52.010909" lon="4.368048">
        <ele>2.439833</ele>
        <time>2021-09-17T14:12:41.350Z</time>
      </trkpt>
      <trkpt lat="52.010935" lon="4.368059">
        <ele>2.424816</ele>
        <time>2021-09-17T14:12:42.463Z</time>
      </trkpt>
      <trkpt lat="52.011009" lon="4.368091">
        <ele>2.382015</ele>
        <time>2021-09-17T14:12:45.542Z</time>
      </trkpt>
      <trkpt lat="52.011024" lon="4.368101">
        <ele>2.372953</ele>
        <time>2021-09-17T14:12:46.204Z</time>
      </trkpt>
      <trkpt lat="52.011080" lon="4.367790">
        <ele>2.261477</ele>
        <time>2021-09-17T14:12:54.315Z</time>
      </trkpt>
      <trkpt lat="52.011197" lon="4.367036">
        <ele>2.127362</ele>
        <time>2021-09-17T14:13:13.751Z</time>
      </trkpt>
      <trkpt lat="52.011217" lon="4.366911">
        <ele>2.129228</ele>
        <time>2021-09-17T14:13:16.990Z</time>
      </trkpt>
      <trkpt lat="52.011304" lon="4.366490">
        <ele>2.135643</ele>
        <time>2021-09-17T14:13:28.167Z</time>
      </trkpt>
      <trkpt lat="52.011339" lon="4.366384">
        <ele>2.137381</ele>
        <time>2021-09-17T14:13:31.206Z</time>
      </trkpt>
      <trkpt lat="52.011339" lon="4.366384">
        <ele>2.137381</ele>
        <time>2021-09-17T14:13:31.215Z</time>
      </trkpt>
      <trkpt lat="52.011391" lon="4.366221">
        <ele>2.140033</ele>
        <time>2021-09-17T14:13:35.861Z</time>
      </trkpt>
      <trkpt lat="52.011485" lon="4.365972">
        <ele>2.144253</ele>
        <time>2021-09-17T14:13:43.236Z</time>
      </trkpt>
      <trkpt lat="52.011871" lon="4.364977">
        <ele>2.161243</ele>
        <time>2021-09-17T14:14:13.193Z</time>
      </trkpt>
      <trkpt lat="52.012160" lon="4.364027">
        <ele>2.431621</ele>
        <time>2021-09-17T14:14:40.400Z</time>
      </trkpt>
      <trkpt lat="52.012396" lon="4.363129">
        <ele>2.737030</ele>
        <time>2021-09-17T14:15:05.740Z</time>
      </trkpt>
      <trkpt lat="52.012539" lon="4.362591">
        <ele>2.920326</ele>
        <time>2021-09-17T14:15:20.817Z</time>
      </trkpt>
      <trkpt lat="52.012562" lon="4.362536">
        <ele>2.941123</ele>
        <time>2021-09-17T14:15:22.563Z</time>
      </trkpt>
      <trkpt lat="52.012582" lon="4.362491">
        <ele>2.958484</ele>
        <time>2021-09-17T14:15:23.949Z</time>
      </trkpt>
      <trkpt lat="52.012582" lon="4.362491">
        <ele>2.958484</ele>
        <time>2021-09-17T14:15:23.953Z</time>
      </trkpt>
      <trkpt lat="52.012582" lon="4.362491">
        <ele>2.958484</ele>
        <time>2021-09-17T14:15:23.965Z</time>
      </trkpt>
      <trkpt lat="52.012523" lon="4.362383">
        <ele>3.003651</ele>
        <time>2021-09-17T14:15:27.612Z</time>
      </trkpt>
      <trkpt lat="52.012471" lon="4.362287">
        <ele>3.043650</ele>
        <time>2021-09-17T14:15:30.896Z</time>
      </trkpt>
      <trkpt lat="52.012452" lon="4.362248">
        <ele>3.059207</ele>
        <time>2021-09-17T14:15:32.150Z</time>
      </trkpt>
      <trkpt lat="52.012420" lon="4.362181">
        <ele>3.085431</ele>
        <time>2021-09-17T14:15:34.325Z</time>
      </trkpt>
      <trkpt lat="52.012393" lon="4.362114">
        <ele>3.109471</ele>
        <time>2021-09-17T14:15:36.452Z</time>
      </trkpt>
      <trkpt lat="52.012165" lon="4.361567">
        <ele>3.307782</ele>
        <time>2021-09-17T14:15:53.430Z</time>
      </trkpt>
      <trkpt lat="52.012150" lon="4.361583">
        <ele>3.316534</ele>
        <time>2021-09-17T14:15:54.165Z</time>
      </trkpt>
      <trkpt lat="52.011873" lon="4.361877">
        <ele>3.477904</ele>
        <time>2021-09-17T14:16:08.144Z</time>
      </trkpt>
      <trkpt lat="52.011507" lon="4.361834">
        <ele>3.656875</ele>
        <time>2021-09-17T14:16:23.616Z</time>
      </trkpt>
      <trkpt lat="52.011396" lon="4.361821">
        <ele>3.711152</ele>
        <time>2021-09-17T14:16:28.303Z</time>
      </trkpt>
      <trkpt lat="52.011229" lon="4.361440">
        <ele>3.851563</ele>
        <time>2021-09-17T14:16:40.395Z</time>
      </trkpt>
      <trkpt lat="52.011217" lon="4.361456">
        <ele>3.859134</ele>
        <time>2021-09-17T14:16:41.049Z</time>
      </trkpt>
      <trkpt lat="52.010875" lon="4.360721">
        <ele>4.026916</ele>
        <time>2021-09-17T14:17:04.327Z</time>
      </trkpt>
      <trkpt lat="52.010744" lon="4.360438">
        <ele>4.069051</ele>
        <time>2021-09-17T14:17:13.312Z</time>
      </trkpt>
      <trkpt lat="52.010739" lon="4.360415">
        <ele>4.071954</ele>
        <time>2021-09-17T14:17:13.941Z</time>
      </trkpt>
      <trkpt lat="52.010672" lon="4.360231">
        <ele>4.097393</ele>
        <time>2021-09-17T14:17:19.325Z</time>
      </trkpt>
      <trkpt lat="52.010695" lon="4.360217">
        <ele>4.102141</ele>
        <time>2021-09-17T14:17:20.348Z</time>
      </trkpt>
      <trkpt lat="52.010814" lon="4.360125">
        <ele>4.127618</ele>
        <time>2021-09-17T14:17:25.795Z</time>
      </trkpt>
      <trkpt lat="52.010960" lon="4.359993">
        <ele>4.159919</ele>
        <time>2021-09-17T14:17:32.813Z</time>
      </trkpt>
      <trkpt lat="52.011361" lon="4.359610">
        <ele>4.249845</ele>
        <time>2021-09-17T14:17:52.267Z</time>
      </trkpt>
      <trkpt lat="52.011384" lon="4.359583">
        <ele>4.255330</ele>
        <time>2021-09-17T14:17:53.457Z</time>
      </trkpt>
      <trkpt lat="52.011384" lon="4.359583">
        <ele>4.255330</ele>
        <time>2021-09-17T14:17:53.462Z</time>
      </trkpt>
      <trkpt lat="52.011413" lon="4.359548">
        <ele>4.262314</ele>
        <time>2021-09-17T14:17:54.966Z</time>
      </trkpt>
      <trkpt lat="52.011491" lon="4.359456">
        <ele>4.280948</ele>
        <time>2021-09-17T14:17:59.000Z</time>
      </trkpt>
      <trkpt lat="52.011571" lon="4.359362">
        <ele>4.300034</ele>
        <time>2021-09-17T14:18:03.015Z</time>
      </trkpt>
      <trkpt lat="52.011901" lon="4.360200">
        <ele>4.060891</ele>
        <time>2021-09-17T14:18:27.901Z</time>
      </trkpt>
      <trkpt lat="52.011901" lon="4.360200">
        <ele>4.060891</ele>
        <time>2021-09-17T14:18:27.985Z</time>
      </trkpt>
      <trkpt lat="52.011901" lon="4.360319">
        <ele>4.031119</ele>
        <time>2021-09-17T14:18:30.975Z</time>
      </trkpt>
      <trkpt lat="52.011897" lon="4.360475">
        <ele>3.992056</ele>
        <time>2021-09-17T14:18:34.880Z</time>
      </trkpt>
      <trkpt lat="52.011938" lon="4.360562">
        <ele>3.964642</ele>
        <time>2021-09-17T14:18:37.591Z</time>
      </trkpt>
      <trkpt lat="52.011953" lon="4.360751">
        <ele>3.916965</ele>
        <time>2021-09-17T14:18:42.330Z</time>
      </trkpt>
      <trkpt lat="52.012040" lon="4.360979">
        <ele>3.849850</ele>
        <time>2021-09-17T14:18:49.071Z</time>
      </trkpt>
      <trkpt lat="52.012140" lon="4.361220">
        <ele>3.777134</ele>
        <time>2021-09-17T14:18:56.256Z</time>
      </trkpt>
      <trkpt lat="52.012254" lon="4.361473">
        <ele>3.698688</ele>
        <time>2021-09-17T14:19:04.112Z</time>
      </trkpt>
      <trkpt lat="52.012254" lon="4.361473">
        <ele>3.698688</ele>
        <time>2021-09-17T14:19:04.125Z</time>
      </trkpt>
      <trkpt lat="52.012309" lon="4.361607">
        <ele>3.658392</ele>
        <time>2021-09-17T14:19:08.110Z</time>
      </trkpt>
      <trkpt lat="52.012457" lon="4.361969">
        <ele>3.537080</ele>
        <time>2021-09-17T14:19:18.978Z</time>
      </trkpt>
      <trkpt lat="52.012529" lon="4.362135">
        <ele>3.457728</ele>
        <time>2021-09-17T14:19:24.006Z</time>
      </trkpt>
      <trkpt lat="52.012688" lon="4.361497">
        <ele>3.188769</ele>
        <time>2021-09-17T14:19:41.100Z</time>
      </trkpt>
      <trkpt lat="52.012746" lon="4.361222">
        <ele>3.075180</ele>
        <time>2021-09-17T14:19:48.298Z</time>
      </trkpt>
      <trkpt lat="52.012852" lon="4.360834">
        <ele>2.909306</ele>
        <time>2021-09-17T14:19:58.840Z</time>
      </trkpt>
      <trkpt lat="52.012857" lon="4.360815">
        <ele>2.901232</ele>
        <time>2021-09-17T14:19:59.348Z</time>
      </trkpt>
      <trkpt lat="52.012880" lon="4.360714">
        <ele>2.859152</ele>
        <time>2021-09-17T14:20:02.051Z</time>
      </trkpt>
      <trkpt lat="52.012875" lon="4.360614">
        <ele>2.819948</ele>
        <time>2021-09-17T14:20:04.502Z</time>
      </trkpt>
      <trkpt lat="52.013125" lon="4.359903">
        <ele>2.499989</ele>
        <time>2021-09-17T14:20:24.919Z</time>
      </trkpt>
      <trkpt lat="52.013160" lon="4.359803">
        <ele>2.455038</ele>
        <time>2021-09-17T14:20:27.797Z</time>
      </trkpt>
      <trkpt lat="52.013316" lon="4.359407">
        <ele>2.384456</ele>
        <time>2021-09-17T14:20:39.598Z</time>
      </trkpt>
      <trkpt lat="52.013362" lon="4.359298">
        <ele>2.369592</ele>
        <time>2021-09-17T14:20:42.905Z</time>
      </trkpt>
      <trkpt lat="52.013364" lon="4.359225">
        <ele>2.361374</ele>
        <time>2021-09-17T14:20:44.747Z</time>
      </trkpt>
      <trkpt lat="52.013457" lon="4.358971">
        <ele>2.328134</ele>
        <time>2021-09-17T14:20:52.125Z</time>
      </trkpt>
      <trkpt lat="52.013983" lon="4.358345">
        <ele>2.208989</ele>
        <time>2021-09-17T14:21:18.688Z</time>
      </trkpt>
      <trkpt lat="52.014004" lon="4.358319">
        <ele>2.204164</ele>
        <time>2021-09-17T14:21:19.758Z</time>
      </trkpt>
      <trkpt lat="52.014133" lon="4.358156">
        <ele>2.174302</ele>
        <time>2021-09-17T14:21:26.452Z</time>
      </trkpt>
      <trkpt lat="52.014166" lon="4.358116">
        <ele>2.166779</ele>
        <time>2021-09-17T14:21:28.170Z</time>
      </trkpt>
      <trkpt lat="52.014166" lon="4.358116">
        <ele>2.166779</ele>
        <time>2021-09-17T14:21:28.177Z</time>
      </trkpt>
      <trkpt lat="52.014298" lon="4.358413">
        <ele>2.125577</ele>
        <time>2021-09-17T14:21:37.456Z</time>
      </trkpt>
      <trkpt lat="52.014426" lon="4.358608">
        <ele>2.114494</ele>
        <time>2021-09-17T14:21:44.765Z</time>
      </trkpt>
      <trkpt lat="52.014453" lon="4.358650">
        <ele>2.125592</ele>
        <time>2021-09-17T14:21:46.319Z</time>
      </trkpt>
      <trkpt lat="52.014738" lon="4.359321">
        <ele>2.274568</ele>
        <time>2021-09-17T14:22:07.057Z</time>
      </trkpt>
      <trkpt lat="52.015077" lon="4.360127">
        <ele>2.452955</ele>
        <time>2021-09-17T14:22:32.031Z</time>
      </trkpt>
      <trkpt lat="52.015219" lon="4.360464">
        <ele>2.527584</ele>
        <time>2021-09-17T14:22:42.531Z</time>
      </trkpt>
      <trkpt lat="52.015271" lon="4.360588">
        <ele>2.555002</ele>
        <time>2021-09-17T14:22:46.367Z</time>
      </trkpt>
      <trkpt lat="52.015762" lon="4.361767">
        <ele>2.738002</ele>
        <time>2021-09-17T14:23:22.934Z</time>
      </trkpt>
      <trkpt lat="52.015762" lon="4.361767">
        <ele>2.738002</ele>
        <time>2021-09-17T14:23:22.953Z</time>
      </trkpt>
      <trkpt lat="52.015762" lon="4.361767">
        <ele>2.738002</ele>
        <time>2021-09-17T14:23:23.046Z</time>
      </trkpt>
      <trkpt lat="52.016398" lon="4.360909">
        <ele>2.878039</ele>
        <time>2021-09-17T14:23:57.166Z</time>
      </trkpt>
      <trkpt lat="52.016425" lon="4.360875">
        <ele>2.883826</ele>
        <time>2021-09-17T14:23:58.553Z</time>
      </trkpt>
      <trkpt lat="52.016474" lon="4.360812">
        <ele>2.894411</ele>
        <time>2021-09-17T14:24:01.116Z</time>
      </trkpt>
      <trkpt lat="52.016539" lon="4.360714">
        <ele>2.909433</ele>
        <time>2021-09-17T14:24:04.744Z</time>
      </trkpt>
      <trkpt lat="52.016700" lon="4.360523">
        <ele>2.935578</ele>
        <time>2021-09-17T14:24:12.887Z</time>
      </trkpt>
      <trkpt lat="52.016827" lon="4.360366">
        <ele>2.893334</ele>
        <time>2021-09-17T14:24:19.376Z</time>
      </trkpt>
      <trkpt lat="52.017198" lon="4.359915">
        <ele>2.770678</ele>
        <time>2021-09-17T14:24:38.385Z</time>
      </trkpt>
      <trkpt lat="52.017450" lon="4.359571">
        <ele>2.683550</ele>
        <time>2021-09-17T14:24:51.830Z</time>
      </trkpt>
      <trkpt lat="52.017498" lon="4.359505">
        <ele>2.666905</ele>
        <time>2021-09-17T14:24:54.419Z</time>
      </trkpt>
      <trkpt lat="52.017764" lon="4.359116">
        <ele>2.572169</ele>
        <time>2021-09-17T14:25:08.965Z</time>
      </trkpt>
      <trkpt lat="52.017873" lon="4.358949">
        <ele>2.532510</ele>
        <time>2021-09-17T14:25:15.049Z</time>
      </trkpt>
      <trkpt lat="52.017986" lon="4.358763">
        <ele>2.489930</ele>
        <time>2021-09-17T14:25:21.557Z</time>
      </trkpt>
      <trkpt lat="52.018016" lon="4.358812">
        <ele>2.478669</ele>
        <time>2021-09-17T14:25:23.278Z</time>
      </trkpt>
      <trkpt lat="52.018044" lon="4.358863">
        <ele>2.467535</ele>
        <time>2021-09-17T14:25:25.006Z</time>
      </trkpt>
      <trkpt lat="52.018218" lon="4.359173">
        <ele>2.306318</ele>
        <time>2021-09-17T14:25:35.468Z</time>
      </trkpt>
      <trkpt lat="52.018235" lon="4.359216">
        <ele>2.286078</ele>
        <time>2021-09-17T14:25:36.738Z</time>
      </trkpt>
      <trkpt lat="52.018249" lon="4.359298">
        <ele>2.252378</ele>
        <time>2021-09-17T14:25:38.870Z</time>
      </trkpt>
      <trkpt lat="52.018267" lon="4.359408">
        <ele>2.207303</ele>
        <time>2021-09-17T14:25:41.709Z</time>
      </trkpt>
      <trkpt lat="52.018346" lon="4.359759">
        <ele>2.059298</ele>
        <time>2021-09-17T14:25:51.014Z</time>
      </trkpt>
      <trkpt lat="52.018438" lon="4.359990">
        <ele>1.950333</ele>
        <time>2021-09-17T14:25:57.868Z</time>
      </trkpt>
      <trkpt lat="52.018529" lon="4.360220">
        <ele>1.842050</ele>
        <time>2021-09-17T14:26:04.656Z</time>
      </trkpt>
      <trkpt lat="52.018619" lon="4.360422">
        <ele>1.743292</ele>
        <time>2021-09-17T14:26:10.872Z</time>
      </trkpt>
      <trkpt lat="52.019166" lon="4.361713">
        <ele>1.120231</ele>
        <time>2021-09-17T14:26:49.670Z</time>
      </trkpt>
      <trkpt lat="52.019190" lon="4.361774">
        <ele>1.091193</ele>
        <time>2021-09-17T14:26:51.455Z</time>
      </trkpt>
      <trkpt lat="52.019222" lon="4.361851">
        <ele>1.053927</ele>
        <time>2021-09-17T14:26:53.761Z</time>
      </trkpt>
      <trkpt lat="52.019240" lon="4.361888">
        <ele>1.035010</ele>
        <time>2021-09-17T14:26:54.913Z</time>
      </trkpt>
      <trkpt lat="52.019475" lon="4.362443">
        <ele>0.764813</ele>
        <time>2021-09-17T14:27:11.589Z</time>
      </trkpt>
      <trkpt lat="52.019602" lon="4.362738">
        <ele>0.620418</ele>
        <time>2021-09-17T14:27:20.526Z</time>
      </trkpt>
      <trkpt lat="52.019655" lon="4.362863">
        <ele>0.559536</ele>
        <time>2021-09-17T14:27:24.281Z</time>
      </trkpt>
      <trkpt lat="52.020502" lon="4.364840">
        <ele>-0.019887</ele>
        <time>2021-09-17T14:28:24.678Z</time>
      </trkpt>
      <trkpt lat="52.020508" lon="4.364923">
        <ele>-0.029446</ele>
        <time>2021-09-17T14:28:26.757Z</time>
      </trkpt>
      <trkpt lat="52.020499" lon="4.365037">
        <ele>-0.042593</ele>
        <time>2021-09-17T14:28:29.656Z</time>
      </trkpt>
      <trkpt lat="52.020543" lon="4.365178">
        <ele>-0.060677</ele>
        <time>2021-09-17T14:28:33.652Z</time>
      </trkpt>
      <trkpt lat="52.020744" lon="4.365592">
        <ele>-0.120997</ele>
        <time>2021-09-17T14:28:46.921Z</time>
      </trkpt>
      <trkpt lat="52.021039" lon="4.366254">
        <ele>-0.167779</ele>
        <time>2021-09-17T14:29:07.511Z</time>
      </trkpt>
      <trkpt lat="52.021253" lon="4.366801">
        <ele>-0.004329</ele>
        <time>2021-09-17T14:29:23.974Z</time>
      </trkpt>
      <trkpt lat="52.021675" lon="4.367881">
        <ele>0.318273</ele>
        <time>2021-09-17T14:29:56.906Z</time>
      </trkpt>
      <trkpt lat="52.021508" lon="4.368079">
        <ele>0.402984</ele>
        <time>2021-09-17T14:30:05.610Z</time>
      </trkpt>
      <trkpt lat="52.021489" lon="4.368101">
        <ele>0.412544</ele>
        <time>2021-09-17T14:30:06.592Z</time>
      </trkpt>
      <trkpt lat="52.021298" lon="4.368327">
        <ele>0.509362</ele>
        <time>2021-09-17T14:30:16.448Z</time>
      </trkpt>
      <trkpt lat="52.021227" lon="4.368411">
        <ele>0.546113</ele>
        <time>2021-09-17T14:30:20.181Z</time>
      </trkpt>
      <trkpt lat="52.020855" lon="4.368823">
        <ele>0.747712</ele>
        <time>2021-09-17T14:30:39.195Z</time>
      </trkpt>
      <trkpt lat="52.020667" lon="4.369025">
        <ele>0.848640</ele>
        <time>2021-09-17T14:30:48.612Z</time>
      </trkpt>
      <trkpt lat="52.020537" lon="4.369178">
        <ele>0.920521</ele>
        <time>2021-09-17T14:30:55.445Z</time>
      </trkpt>
      <trkpt lat="52.020340" lon="4.369410">
        <ele>1.029472</ele>
        <time>2021-09-17T14:31:05.683Z</time>
      </trkpt>
      <trkpt lat="52.019748" lon="4.370047">
        <ele>1.341294</ele>
        <time>2021-09-17T14:31:35.003Z</time>
      </trkpt>
      <trkpt lat="52.019748" lon="4.370047">
        <ele>1.341294</ele>
        <time>2021-09-17T14:31:35.087Z</time>
      </trkpt>
      <trkpt lat="52.019775" lon="4.370141">
        <ele>1.333589</ele>
        <time>2021-09-17T14:31:37.717Z</time>
      </trkpt>
      <trkpt lat="52.019784" lon="4.370237">
        <ele>1.326376</ele>
        <time>2021-09-17T14:31:40.184Z</time>
      </trkpt>
      <trkpt lat="52.019778" lon="4.370357">
        <ele>1.317433</ele>
        <time>2021-09-17T14:31:43.175Z</time>
      </trkpt>
      <trkpt lat="52.019687" lon="4.370984">
        <ele>1.269581</ele>
        <time>2021-09-17T14:31:59.401Z</time>
      </trkpt>
      <trkpt lat="52.019642" lon="4.371300">
        <ele>1.245488</ele>
        <time>2021-09-17T14:32:07.650Z</time>
      </trkpt>
      <trkpt lat="52.019503" lon="4.372262">
        <ele>1.172086</ele>
        <time>2021-09-17T14:32:32.463Z</time>
      </trkpt>
      <trkpt lat="52.019367" lon="4.373267">
        <ele>1.094497</ele>
        <time>2021-09-17T14:32:58.360Z</time>
      </trkpt>
      <trkpt lat="52.019334" lon="4.373589">
        <ele>1.069313</ele>
        <time>2021-09-17T14:33:06.534Z</time>
      </trkpt>
      <trkpt lat="52.019268" lon="4.374224">
        <ele>1.019628</ele>
        <time>2021-09-17T14:33:22.625Z</time>
      </trkpt>
      <trkpt lat="52.019180" lon="4.374930">
        <ele>0.964053</ele>
        <time>2021-09-17T14:33:40.814Z</time>
      </trkpt>
      <trkpt lat="52.019105" lon="4.375531">
        <ele>0.916742</ele>
        <time>2021-09-17T14:33:56.381Z</time>
      </trkpt>
      <trkpt lat="52.018670" lon="4.376061">
        <ele>0.914033</ele>
        <time>2021-09-17T14:34:18.717Z</time>
      </trkpt>
      <trkpt lat="52.017774" lon="4.376995">
        <ele>0.950454</ele>
        <time>2021-09-17T14:35:02.348Z</time>
      </trkpt>
      <trkpt lat="52.017261" lon="4.377490">
        <ele>0.945872</ele>
        <time>2021-09-17T14:35:26.956Z</time>
      </trkpt>
      <trkpt lat="52.017189" lon="4.377578">
        <ele>0.940696</ele>
        <time>2021-09-17T14:35:30.701Z</time>
      </trkpt>
      <trkpt lat="52.017132" lon="4.377636">
        <ele>0.936832</ele>
        <time>2021-09-17T14:35:33.514Z</time>
      </trkpt>
      <trkpt lat="52.016993" lon="4.377787">
        <ele>0.927225</ele>
        <time>2021-09-17T14:35:40.539Z</time>
      </trkpt>
      <trkpt lat="52.016993" lon="4.377787">
        <ele>0.927225</ele>
        <time>2021-09-17T14:35:40.556Z</time>
      </trkpt>
      <trkpt lat="52.016993" lon="4.377787">
        <ele>0.927225</ele>
        <time>2021-09-17T14:35:40.591Z</time>
      </trkpt>
      <trkpt lat="52.017085" lon="4.378015">
        <ele>0.917585</ele>
        <time>2021-09-17T14:35:47.555Z</time>
      </trkpt>
      <trkpt lat="52.017165" lon="4.378209">
        <ele>0.909328</ele>
        <time>2021-09-17T14:35:53.491Z</time>
      </trkpt>
      <trkpt lat="52.017449" lon="4.378904">
        <ele>0.879829</ele>
        <time>2021-09-17T14:36:14.527Z</time>
      </trkpt>
      <trkpt lat="52.017668" lon="4.379415">
        <ele>0.854310</ele>
        <time>2021-09-17T14:36:30.103Z</time>
      </trkpt>
      <trkpt lat="52.017750" lon="4.379642">
        <ele>0.760607</ele>
        <time>2021-09-17T14:36:36.621Z</time>
      </trkpt>
      <trkpt lat="52.017835" lon="4.379860">
        <ele>0.668736</ele>
        <time>2021-09-17T14:36:43.020Z</time>
      </trkpt>
      <trkpt lat="52.018121" lon="4.380563">
        <ele>0.368735</ele>
        <time>2021-09-17T14:37:03.921Z</time>
      </trkpt>
      <trkpt lat="52.018585" lon="4.381702">
        <ele>-0.117522</ele>
        <time>2021-09-17T14:37:38.037Z</time>
      </trkpt>
      <trkpt lat="52.018651" lon="4.381858">
        <ele>-0.184704</ele>
        <time>2021-09-17T14:37:42.731Z</time>
      </trkpt>
      <trkpt lat="52.019629" lon="4.384313">
        <ele>-1.145376</ele>
        <time>2021-09-17T14:38:55.633Z</time>
      </trkpt>
      <trkpt lat="52.019649" lon="4.384341">
        <ele>-1.165345</ele>
        <time>2021-09-17T14:38:56.693Z</time>
      </trkpt>
      <trkpt lat="52.020123" lon="4.385003">
        <ele>-1.638130</ele>
        <time>2021-09-17T14:39:21.995Z</time>
      </trkpt>
      <trkpt lat="52.020193" lon="4.385173">
        <ele>-1.733347</ele>
        <time>2021-09-17T14:39:27.077Z</time>
      </trkpt>
      <trkpt lat="52.020729" lon="4.386489">
        <ele>-2.467967</ele>
        <time>2021-09-17T14:40:06.064Z</time>
      </trkpt>
      <trkpt lat="52.021008" lon="4.387176">
        <ele>-2.629607</ele>
        <time>2021-09-17T14:40:26.423Z</time>
      </trkpt>
      <trkpt lat="52.021331" lon="4.387970">
        <ele>-2.791846</ele>
        <time>2021-09-17T14:40:50.158Z</time>
      </trkpt>
      <trkpt lat="52.021372" lon="4.388077">
        <ele>-2.813331</ele>
        <time>2021-09-17T14:40:53.355Z</time>
      </trkpt>
      <trkpt lat="52.020895" lon="4.388377">
        <ele>-2.955006</ele>
        <time>2021-09-17T14:41:14.491Z</time>
      </trkpt>
      <trkpt lat="52.020623" lon="4.388547">
        <ele>-2.887653</ele>
        <time>2021-09-17T14:41:26.673Z</time>
      </trkpt>
      <trkpt lat="52.020274" lon="4.388812">
        <ele>-2.554100</ele>
        <time>2021-09-17T14:41:42.874Z</time>
      </trkpt>
      <trkpt lat="52.020092" lon="4.388946">
        <ele>-2.381090</ele>
        <time>2021-09-17T14:41:51.287Z</time>
      </trkpt>
      <trkpt lat="52.019968" lon="4.388984">
        <ele>-2.271829</ele>
        <time>2021-09-17T14:41:56.739Z</time>
      </trkpt>
      <trkpt lat="52.019923" lon="4.388987">
        <ele>-2.232832</ele>
        <time>2021-09-17T14:41:58.636Z</time>
      </trkpt>
      <trkpt lat="52.019862" lon="4.388994">
        <ele>-2.179882</ele>
        <time>2021-09-17T14:42:01.242Z</time>
      </trkpt>
      <trkpt lat="52.019813" lon="4.388999">
        <ele>-2.137371</ele>
        <time>2021-09-17T14:42:03.330Z</time>
      </trkpt>
      <trkpt lat="52.019491" lon="4.389165">
        <ele>-1.844865</ele>
        <time>2021-09-17T14:42:17.778Z</time>
      </trkpt>
      <trkpt lat="52.019217" lon="4.389275">
        <ele>-1.600482</ele>
        <time>2021-09-17T14:42:29.835Z</time>
      </trkpt>
      <trkpt lat="52.019163" lon="4.389297">
        <ele>-1.552277</ele>
        <time>2021-09-17T14:42:32.223Z</time>
      </trkpt>
      <trkpt lat="52.019115" lon="4.389323">
        <ele>-1.508467</ele>
        <time>2021-09-17T14:42:34.396Z</time>
      </trkpt>
      <trkpt lat="52.018882" lon="4.389448">
        <ele>-1.296487</ele>
        <time>2021-09-17T14:42:44.936Z</time>
      </trkpt>
      <trkpt lat="52.018327" lon="4.389855">
        <ele>-0.770983</ele>
        <time>2021-09-17T14:43:10.977Z</time>
      </trkpt>
      <trkpt lat="52.017765" lon="4.390224">
        <ele>-0.247857</ele>
        <time>2021-09-17T14:43:36.666Z</time>
      </trkpt>
      <trkpt lat="52.016599" lon="4.391053">
        <ele>0.336858</ele>
        <time>2021-09-17T14:44:30.023Z</time>
      </trkpt>
      <trkpt lat="52.016214" lon="4.391319">
        <ele>0.447513</ele>
        <time>2021-09-17T14:44:47.281Z</time>
      </trkpt>
      <trkpt lat="52.015832" lon="4.391591">
        <ele>0.557825</ele>
        <time>2021-09-17T14:45:04.387Z</time>
      </trkpt>
      <trkpt lat="52.015551" lon="4.391791">
        <ele>0.527298</ele>
        <time>2021-09-17T14:45:16.931Z</time>
      </trkpt>
      <trkpt lat="52.014905" lon="4.392245">
        <ele>0.324009</ele>
        <time>2021-09-17T14:45:45.529Z</time>
      </trkpt>
      <trkpt lat="52.014773" lon="4.392340">
        <ele>0.282311</ele>
        <time>2021-09-17T14:45:51.372Z</time>
      </trkpt>
      <trkpt lat="52.014378" lon="4.392598">
        <ele>0.159350</ele>
        <time>2021-09-17T14:46:08.765Z</time>
      </trkpt>
      <trkpt lat="52.013977" lon="4.392830">
        <ele>0.062281</ele>
        <time>2021-09-17T14:46:26.119Z</time>
      </trkpt>
      <trkpt lat="52.013074" lon="4.393396">
        <ele>0.026432</ele>
        <time>2021-09-17T14:47:05.774Z</time>
      </trkpt>
      <trkpt lat="52.012848" lon="4.393516">
        <ele>0.017625</ele>
        <time>2021-09-17T14:47:15.547Z</time>
      </trkpt>
      <trkpt lat="52.012371" lon="4.393832">
        <ele>-0.001543</ele>
        <time>2021-09-17T14:47:36.761Z</time>
      </trkpt>
      <trkpt lat="52.012225" lon="4.393924">
        <ele>-0.007900</ele>
        <time>2021-09-17T14:47:43.240Z</time>
      </trkpt>
      <trkpt lat="52.012084" lon="4.394016">
        <ele>-0.014068</ele>
        <time>2021-09-17T14:47:49.537Z</time>
      </trkpt>
      <trkpt lat="52.011770" lon="4.394292">
        <ele>-0.028560</ele>
        <time>2021-09-17T14:48:04.223Z</time>
      </trkpt>
      <trkpt lat="52.011465" lon="4.394484">
        <ele>-0.041837</ele>
        <time>2021-09-17T14:48:17.656Z</time>
      </trkpt>
      <trkpt lat="52.011065" lon="4.394684">
        <ele>-0.058826</ele>
        <time>2021-09-17T14:48:34.759Z</time>
      </trkpt>
      <trkpt lat="52.010734" lon="4.394902">
        <ele>-0.073324</ele>
        <time>2021-09-17T14:48:49.351Z</time>
      </trkpt>
      <trkpt lat="52.010622" lon="4.394978">
        <ele>-0.099166</ele>
        <time>2021-09-17T14:48:54.293Z</time>
      </trkpt>
      <trkpt lat="52.010219" lon="4.395235">
        <ele>-0.194846</ele>
        <time>2021-09-17T14:49:11.979Z</time>
      </trkpt>
      <trkpt lat="52.010028" lon="4.395417">
        <ele>-0.243783</ele>
        <time>2021-09-17T14:49:21.093Z</time>
      </trkpt>
      <trkpt lat="52.009988" lon="4.395486">
        <ele>-0.256677</ele>
        <time>2021-09-17T14:49:23.438Z</time>
      </trkpt>
      <trkpt lat="52.009947" lon="4.395462">
        <ele>-0.266308</ele>
        <time>2021-09-17T14:49:25.217Z</time>
      </trkpt>
      <trkpt lat="52.009814" lon="4.395449">
        <ele>-0.295755</ele>
        <time>2021-09-17T14:49:30.675Z</time>
      </trkpt>
      <trkpt lat="52.009715" lon="4.395418">
        <ele>-0.318037</ele>
        <time>2021-09-17T14:49:34.825Z</time>
      </trkpt>
      <trkpt lat="52.009649" lon="4.395382">
        <ele>-0.333423</ele>
        <time>2021-09-17T14:49:37.623Z</time>
      </trkpt>
      <trkpt lat="52.009588" lon="4.395418">
        <ele>-0.347766</ele>
        <time>2021-09-17T14:49:40.262Z</time>
      </trkpt>
      <trkpt lat="52.009586" lon="4.395419">
        <ele>-0.348229</ele>
        <time>2021-09-17T14:49:40.346Z</time>
      </trkpt>
      <trkpt lat="52.009564" lon="4.395528">
        <ele>-0.363833</ele>
        <time>2021-09-17T14:49:43.240Z</time>
      </trkpt>
      <trkpt lat="52.009553" lon="4.395570">
        <ele>-0.370042</ele>
        <time>2021-09-17T14:49:44.385Z</time>
      </trkpt>
      <trkpt lat="52.009516" lon="4.395673">
        <ele>-0.386265</ele>
        <time>2021-09-17T14:49:47.379Z</time>
      </trkpt>
      <trkpt lat="52.009505" lon="4.395689">
        <ele>-0.389528</ele>
        <time>2021-09-17T14:49:47.982Z</time>
      </trkpt>
      <trkpt lat="52.009494" lon="4.395704">
        <ele>-0.392702</ele>
        <time>2021-09-17T14:49:48.565Z</time>
      </trkpt>
      <trkpt lat="52.009494" lon="4.395704">
        <ele>-0.392702</ele>
        <time>2021-09-17T14:49:48.585Z</time>
      </trkpt>
      <trkpt lat="52.009468" lon="4.395734">
        <ele>-0.399750</ele>
        <time>2021-09-17T14:49:49.897Z</time>
      </trkpt>
      <trkpt lat="52.009392" lon="4.395790">
        <ele>-0.418193</ele>
        <time>2021-09-17T14:49:53.248Z</time>
      </trkpt>
      <trkpt lat="52.009378" lon="4.395802">
        <ele>-0.421692</ele>
        <time>2021-09-17T14:49:53.890Z</time>
      </trkpt>
      <trkpt lat="52.009349" lon="4.395831">
        <ele>-0.429217</ele>
        <time>2021-09-17T14:49:55.264Z</time>
      </trkpt>
      <trkpt lat="52.009226" lon="4.395283">
        <ele>-0.521701</ele>
        <time>2021-09-17T14:50:09.855Z</time>
      </trkpt>
      <trkpt lat="52.008954" lon="4.394006">
        <ele>-0.769884</ele>
        <time>2021-09-17T14:50:43.853Z</time>
      </trkpt>
      <trkpt lat="52.008680" lon="4.392898">
        <ele>-0.989193</ele>
        <time>2021-09-17T14:51:13.874Z</time>
      </trkpt>
      <trkpt lat="52.008415" lon="4.391714">
        <ele>-1.347912</ele>
        <time>2021-09-17T14:51:45.172Z</time>
      </trkpt>
      <trkpt lat="52.008374" lon="4.391535">
        <ele>-1.403975</ele>
        <time>2021-09-17T14:51:49.970Z</time>
      </trkpt>
      <trkpt lat="52.008154" lon="4.390575">
        <ele>-1.704666</ele>
        <time>2021-09-17T14:52:15.509Z</time>
      </trkpt>
      <trkpt lat="52.007939" lon="4.389637">
        <ele>-1.851042</ele>
        <time>2021-09-17T14:52:40.620Z</time>
      </trkpt>
      <trkpt lat="52.007913" lon="4.389559">
        <ele>-1.848222</ele>
        <time>2021-09-17T14:52:42.856Z</time>
      </trkpt>
      <trkpt lat="52.007901" lon="4.389507">
        <ele>-1.846457</ele>
        <time>2021-09-17T14:52:44.229Z</time>
      </trkpt>
      <trkpt lat="52.007878" lon="4.389404">
        <ele>-1.842973</ele>
        <time>2021-09-17T14:52:47.013Z</time>
      </trkpt>
      <trkpt lat="52.007867" lon="4.389353">
        <ele>-1.841255</ele>
        <time>2021-09-17T14:52:48.393Z</time>
      </trkpt>
      <trkpt lat="52.007854" lon="4.389299">
        <ele>-1.839411</ele>
        <time>2021-09-17T14:52:49.864Z</time>
      </trkpt>
      <trkpt lat="52.007833" lon="4.389303">
        <ele>-1.838319</ele>
        <time>2021-09-17T14:52:50.717Z</time>
      </trkpt>
      <trkpt lat="52.007737" lon="4.389362">
        <ele>-1.833018</ele>
        <time>2021-09-17T14:52:54.858Z</time>
      </trkpt>
      <trkpt lat="52.007456" lon="4.389544">
        <ele>-1.817393</ele>
        <time>2021-09-17T14:53:07.222Z</time>
      </trkpt>
      <trkpt lat="52.007078" lon="4.389798">
        <ele>-1.796264</ele>
        <time>2021-09-17T14:53:24.145Z</time>
      </trkpt>
      <trkpt lat="52.006892" lon="4.389923">
        <ele>-1.785868</ele>
        <time>2021-09-17T14:53:32.591Z</time>
      </trkpt>
      <trkpt lat="52.006153" lon="4.390430">
        <ele>-1.758716</ele>
        <time>2021-09-17T14:54:06.129Z</time>
      </trkpt>
      <trkpt lat="52.006087" lon="4.390474">
        <ele>-1.756903</ele>
        <time>2021-09-17T14:54:09.066Z</time>
      </trkpt>
      <trkpt lat="52.006036" lon="4.390501">
        <ele>-1.755540</ele>
        <time>2021-09-17T14:54:11.341Z</time>
      </trkpt>
      <trkpt lat="52.005914" lon="4.390453">
        <ele>-1.752350</ele>
        <time>2021-09-17T14:54:16.530Z</time>
      </trkpt>
      <trkpt lat="52.005820" lon="4.390325">
        <ele>-1.749234</ele>
        <time>2021-09-17T14:54:21.591Z</time>
      </trkpt>
      <trkpt lat="52.005630" lon="4.390089">
        <ele>-1.743156</ele>
        <time>2021-09-17T14:54:31.412Z</time>
      </trkpt>
      <trkpt lat="52.005591" lon="4.390045">
        <ele>-1.741949</ele>
        <time>2021-09-17T14:54:33.380Z</time>
      </trkpt>
      <trkpt lat="52.005512" lon="4.389970">
        <ele>-1.739624</ele>
        <time>2021-09-17T14:54:37.097Z</time>
      </trkpt>
      <trkpt lat="52.005286" lon="4.389838">
        <ele>-1.733521</ele>
        <time>2021-09-17T14:54:46.822Z</time>
      </trkpt>
      <trkpt lat="52.005085" lon="4.389848">
        <ele>-1.728411</ele>
        <time>2021-09-17T14:54:54.973Z</time>
      </trkpt>
      <trkpt lat="52.004958" lon="4.389912">
        <ele>-1.740966</ele>
        <time>2021-09-17T14:55:00.364Z</time>
      </trkpt>
      <trkpt lat="52.004765" lon="4.389087">
        <ele>-1.848666</ele>
        <time>2021-09-17T14:55:22.437Z</time>
      </trkpt>
      <trkpt lat="52.004580" lon="4.388299">
        <ele>-1.951582</ele>
        <time>2021-09-17T14:55:43.628Z</time>
      </trkpt>
      <trkpt lat="52.004530" lon="4.388121">
        <ele>-1.975458</ele>
        <time>2021-09-17T14:55:48.555Z</time>
      </trkpt>
      <trkpt lat="52.004500" lon="4.388017">
        <ele>-1.989474</ele>
        <time>2021-09-17T14:55:51.628Z</time>
      </trkpt>
      <trkpt lat="52.004464" lon="4.387863">
        <ele>-2.009576</ele>
        <time>2021-09-17T14:55:55.727Z</time>
      </trkpt>
      <trkpt lat="52.004453" lon="4.387812">
        <ele>-2.016171</ele>
        <time>2021-09-17T14:55:57.081Z</time>
      </trkpt>
      <trkpt lat="52.004156" lon="4.386437">
        <ele>-2.083392</ele>
        <time>2021-09-17T14:56:33.885Z</time>
      </trkpt>
      <trkpt lat="52.004156" lon="4.386437">
        <ele>-2.083392</ele>
        <time>2021-09-17T14:56:34.169Z</time>
      </trkpt>
      <trkpt lat="52.004374" lon="4.386293">
        <ele>-2.083392</ele>
        <time>2021-09-17T14:56:43.825Z</time>
      </trkpt>
      <trkpt lat="52.004635" lon="4.386129">
        <ele>-2.083392</ele>
        <time>2021-09-17T14:56:55.434Z</time>
      </trkpt>
      <trkpt lat="52.005072" lon="4.385815">
        <ele>-2.083392</ele>
        <time>2021-09-17T14:57:15.419Z</time>
      </trkpt>
      <trkpt lat="52.005163" lon="4.385702">
        <ele>-2.083392</ele>
        <time>2021-09-17T14:57:20.307Z</time>
      </trkpt>
      <trkpt lat="52.005207" lon="4.385630">
        <ele>-2.083392</ele>
        <time>2021-09-17T14:57:22.867Z</time>
      </trkpt>
      <trkpt lat="52.005346" lon="4.385496">
        <ele>-2.083392</ele>
        <time>2021-09-17T14:57:29.565Z</time>
      </trkpt>
      <trkpt lat="52.005412" lon="4.385743">
        <ele>-2.083392</ele>
        <time>2021-09-17T14:57:36.477Z</time>
      </trkpt>
      <trkpt lat="52.005544" lon="4.386307">
        <ele>-2.083392</ele>
        <time>2021-09-17T14:57:51.659Z</time>
      </trkpt>
    </trkseg>
  </trk>
</gpx>